{"type": "FeatureCollection", "features": [{"type": "Feature", "properties": {"area_id": "angat-river-basin", "name": "Angat River Basin", "study_type": "river_basin", "zone": null, "area_ha": 98788.8, "version": 1}, "geometry": {"type": "MultiPolygon", "coordinates": [[[[120.752211, 14.913067], [120.756122, 14.916099], [120.762106, 14.917633], [120.766101, 14.922787], [120.767377, 14.932446], [120.773044, 14.9339], [120.781124, 14.941101], [120.783331, 14.941667], [120.784241, 14.938122], [120.806376, 14.936932], [120.810416, 14.933801], [120.814456, 14.936932], [120.823044, 14.938069], [120.831124, 14.945266], [120.839712, 14.946398], [120.844697, 14.950264], [120.846744, 14.942283], [120.874087, 14.941052], [120.876139, 14.93307], [120.882363, 14.937895], [120.883902, 14.943879], [120.899433, 14.960289], [120.899999, 14.966665], [120.902425, 14.967022], [120.905908, 14.970482], [120.916667, 14.970834], [120.917323, 14.978205], [120.92279, 14.982767], [120.931378, 14.983899], [120.953143, 15.004732], [120.96471, 15.0036], [120.976954, 14.992233], [120.981378, 14.991101], [120.986756, 14.986932], [120.998046, 14.988069], [121.003419, 14.992233], [121.01471, 14.991101], [121.024065, 14.982767], [121.031378, 14.983899], [121.036755, 14.988069], [121.048046, 14.986932], [121.051957, 14.983899], [121.061611, 14.982624], [121.062498, 14.979168], [121.06475, 14.978638], [121.068584, 14.97553], [121.077249, 14.974468], [121.081083, 14.971365], [121.105327, 14.970304], [121.132577, 14.996795], [121.133861, 15.002249], [121.137982, 15.007332], [121.136613, 15.011729], [121.133335, 15.0125], [121.133687, 15.02326], [121.145482, 15.035077], [121.146186, 15.044093], [121.149646, 15.047575], [121.149999, 15.050001], [121.149147, 15.053314], [121.145834, 15.054166], [121.146489, 15.061541], [121.151956, 15.066099], [121.158899, 15.067882], [121.157767, 15.085545], [121.153597, 15.090918], [121.155417, 15.095658], [121.16029, 15.099435], [121.162502, 15.100001], [121.164923, 15.100353], [121.168749, 15.104152], [121.172575, 15.100353], [121.175001, 15.100001], [121.175353, 15.102422], [121.187147, 15.114243], [121.187852, 15.12326], [121.191312, 15.126742], [121.191665, 15.129168], [121.193841, 15.12977], [121.197827, 15.132726], [121.215695, 15.134011], [121.217777, 15.141484], [121.224461, 15.146438], [121.232394, 15.145042], [121.234441, 15.137685], [121.241125, 15.132726], [121.245807, 15.134813], [121.257726, 15.147829], [121.258939, 15.156337], [121.261895, 15.160328], [121.263608, 15.166482], [121.26866, 15.170227], [121.278216, 15.171587], [121.280075, 15.178258], [121.288106, 15.180497], [121.286893, 15.185504], [121.282728, 15.191127], [121.28436, 15.200398], [121.293662, 15.192273], [121.308333, 15.191667], [121.308685, 15.185076], [121.312145, 15.181589], [121.312854, 15.168408], [121.316314, 15.164926], [121.316667, 15.1625], [121.319984, 15.161648], [121.321683, 15.155017], [121.328769, 15.153198], [121.332764, 15.148043], [121.333335, 15.137502], [121.329763, 15.136584], [121.328599, 15.093625], [121.325567, 15.089709], [121.324434, 15.072792], [121.321402, 15.068877], [121.320831, 15.050001], [121.317358, 15.049007], [121.315962, 15.029975], [121.306174, 15.028548], [121.302161, 15.025619], [121.299998, 15.024999], [121.300355, 15.014244], [121.303815, 15.010757], [121.304524, 15.005878], [121.310076, 15.000354], [121.319119, 14.999645], [121.324648, 14.994093], [121.325001, 14.954166], [121.322789, 14.9536], [121.318878, 14.950568], [121.313206, 14.949114], [121.311793, 14.938385], [121.305019, 14.936651], [121.303601, 14.931122], [121.300569, 14.927211], [121.299432, 14.920085], [121.303601, 14.914712], [121.304734, 14.910289], [121.307766, 14.906378], [121.309184, 14.900849], [121.315659, 14.89919], [121.317233, 14.895087], [121.31297, 14.889585], [121.3161, 14.885545], [121.317233, 14.836754], [121.312105, 14.830136], [121.308333, 14.829169], [121.305907, 14.829521], [121.302424, 14.832981], [121.294121, 14.833686], [121.289925, 14.829521], [121.273288, 14.828812], [121.268749, 14.83332], [121.264923, 14.829521], [121.260076, 14.828812], [121.252424, 14.821187], [121.245834, 14.820835], [121.245267, 14.823042], [121.241272, 14.828201], [121.233067, 14.830306], [121.2377, 14.836281], [121.236652, 14.840954], [121.226958, 14.842234], [121.223043, 14.845266], [121.220832, 14.845832], [121.220479, 14.835077], [121.217019, 14.83159], [121.21631, 14.826712], [121.210049, 14.820478], [121.193408, 14.821187], [121.189926, 14.824647], [121.175001, 14.824999], [121.172789, 14.825566], [121.168879, 14.828598], [121.164455, 14.829735], [121.156375, 14.836932], [121.151956, 14.838069], [121.146489, 14.842626], [121.145268, 14.856378], [121.142235, 14.860289], [121.140817, 14.865818], [121.135288, 14.867236], [121.12592, 14.875583], [121.125001, 14.879169], [121.118709, 14.879824], [121.11462, 14.882678], [121.097876, 14.883989], [121.093787, 14.886843], [121.088989, 14.888154], [121.086519, 14.88015], [121.081213, 14.878513], [121.077124, 14.875655], [121.070587, 14.874344], [121.06462, 14.878513], [121.047876, 14.879824], [121.035458, 14.891012], [121.017381, 14.892425], [121.016667, 14.908336], [121.005907, 14.908688], [121.002425, 14.912148], [120.991665, 14.9125], [120.985288, 14.913067], [120.977209, 14.920268], [120.971684, 14.921686], [120.970266, 14.927211], [120.967234, 14.931122], [120.966101, 14.935545], [120.961579, 14.940963], [120.951957, 14.942234], [120.943877, 14.949431], [120.920832, 14.950001], [120.91327, 14.94923], [120.911856, 14.935367], [120.900641, 14.92297], [120.899295, 14.901045], [120.895834, 14.900001], [120.893409, 14.899645], [120.881592, 14.887855], [120.872576, 14.887146], [120.869093, 14.883686], [120.858333, 14.883333], [120.843623, 14.882767], [120.839712, 14.879735], [120.835289, 14.878598], [120.82592, 14.87025], [120.824101, 14.863156], [120.809546, 14.861934], [120.807446, 14.870125], [120.797788, 14.871401], [120.788664, 14.879534], [120.786934, 14.872788], [120.782413, 14.86737], [120.77172, 14.865956], [120.770833, 14.8625], [120.768407, 14.862853], [120.762855, 14.868378], [120.762146, 14.877425], [120.754521, 14.885077], [120.754169, 14.895832], [120.753812, 14.902423], [120.750352, 14.90591], [120.75, 14.908335], [120.75, 14.9125], [120.752211, 14.913067]]]]}}, {"type": "Feature", "properties": {"area_id": "angat-river-basin__up", "name": "Angat River Basin (upstream)", "study_type": "river_basin", "zone": "up", "area_ha": 73032.7, "version": 1}, "geometry": {"type": "MultiPolygon", "coordinates": [[[[121.081083, 14.971365], [121.105327, 14.970304], [121.132577, 14.996795], [121.133861, 15.002249], [121.137982, 15.007332], [121.136613, 15.011729], [121.133335, 15.0125], [121.133687, 15.02326], [121.145482, 15.035077], [121.146186, 15.044093], [121.149646, 15.047575], [121.149999, 15.050001], [121.149147, 15.053314], [121.145834, 15.054166], [121.146489, 15.061541], [121.151956, 15.066099], [121.158899, 15.067882], [121.157767, 15.085545], [121.153597, 15.090918], [121.155417, 15.095658], [121.16029, 15.099435], [121.162502, 15.100001], [121.164923, 15.100353], [121.168749, 15.104152], [121.172575, 15.100353], [121.175001, 15.100001], [121.175353, 15.102422], [121.187147, 15.114243], [121.187852, 15.12326], [121.191312, 15.126742], [121.191665, 15.129168], [121.193841, 15.12977], [121.197827, 15.132726], [121.215695, 15.134011], [121.217777, 15.141484], [121.224461, 15.146438], [121.232394, 15.145042], [121.234441, 15.137685], [121.241125, 15.132726], [121.245807, 15.134813], [121.257726, 15.147829], [121.258939, 15.156337], [121.261895, 15.160328], [121.263608, 15.166482], [121.26866, 15.170227], [121.278216, 15.171587], [121.280075, 15.178258], [121.288106, 15.180497], [121.286893, 15.185504], [121.282728, 15.191127], [121.28436, 15.200398], [121.293662, 15.192273], [121.308333, 15.191667], [121.308685, 15.185076], [121.312145, 15.181589], [121.312854, 15.168408], [121.316314, 15.164926], [121.316667, 15.1625], [121.319984, 15.161648], [121.321683, 15.155017], [121.328769, 15.153198], [121.332764, 15.148043], [121.333335, 15.137502], [121.329763, 15.136584], [121.328599, 15.093625], [121.325567, 15.089709], [121.324434, 15.072792], [121.321402, 15.068877], [121.320831, 15.050001], [121.317358, 15.049007], [121.315962, 15.029975], [121.306174, 15.028548], [121.302161, 15.025619], [121.299998, 15.024999], [121.300355, 15.014244], [121.303815, 15.010757], [121.304524, 15.005878], [121.310076, 15.000354], [121.319119, 14.999645], [121.324648, 14.994093], [121.325001, 14.954166], [121.322789, 14.9536], [121.318878, 14.950568], [121.313206, 14.949114], [121.311793, 14.938385], [121.305019, 14.936651], [121.303601, 14.931122], [121.300569, 14.927211], [121.299432, 14.920085], [121.303601, 14.914712], [121.304734, 14.910289], [121.307766, 14.906378], [121.309184, 14.900849], [121.315659, 14.89919], [121.317233, 14.895087], [121.31297, 14.889585], [121.3161, 14.885545], [121.317233, 14.836754], [121.312105, 14.830136], [121.308333, 14.829169], [121.305907, 14.829521], [121.302424, 14.832981], [121.294121, 14.833686], [121.289925, 14.829521], [121.273288, 14.828812], [121.268749, 14.83332], [121.264923, 14.829521], [121.260076, 14.828812], [121.252424, 14.821187], [121.245834, 14.820835], [121.245267, 14.823042], [121.241272, 14.828201], [121.233067, 14.830306], [121.2377, 14.836281], [121.236652, 14.840954], [121.226958, 14.842234], [121.223043, 14.845266], [121.220832, 14.845832], [121.220479, 14.835077], [121.217019, 14.83159], [121.21631, 14.826712], [121.210049, 14.820478], [121.193408, 14.821187], [121.189926, 14.824647], [121.175001, 14.824999], [121.172789, 14.825566], [121.168879, 14.828598], [121.164455, 14.829735], [121.156375, 14.836932], [121.151956, 14.838069], [121.146489, 14.842626], [121.145268, 14.856378], [121.142235, 14.860289], [121.140817, 14.865818], [121.135288, 14.867236], [121.12592, 14.875583], [121.125001, 14.879169], [121.118709, 14.879824], [121.11462, 14.882678], [121.097876, 14.883989], [121.093787, 14.886843], [121.088989, 14.888154], [121.086519, 14.88015], [121.081213, 14.878513], [121.077124, 14.875655], [121.070587, 14.874344], [121.06462, 14.878513], [121.047876, 14.879824], [121.035458, 14.891012], [121.034476, 14.891089], [121.034476, 14.891327], [121.034745, 14.891327], [121.034745, 14.891596], [121.035284, 14.891596], [121.035284, 14.891866], [121.035554, 14.891866], [121.035554, 14.892405], [121.035823, 14.892405], [121.035823, 14.892674], [121.036362, 14.892674], [121.036362, 14.892944], [121.039057, 14.892944], [121.039057, 14.892674], [121.039596, 14.892674], [121.039596, 14.892405], [121.039327, 14.892405], [121.039327, 14.891866], [121.039057, 14.891866], [121.039057, 14.891327], [121.038518, 14.891327], [121.038518, 14.891057], [121.038249, 14.891057], [121.038249, 14.890518], [121.037979, 14.890518], [121.037979, 14.88944], [121.038788, 14.88944], [121.038788, 14.889979], [121.039057, 14.889979], [121.039057, 14.890249], [121.039327, 14.890249], [121.039327, 14.890518], [121.040135, 14.890518], [121.040135, 14.890788], [121.040405, 14.890788], [121.040405, 14.890518], [121.041213, 14.890518], [121.041213, 14.889171], [121.040944, 14.889171], [121.040944, 14.888901], [121.041213, 14.888901], [121.041213, 14.888632], [121.042291, 14.888632], [121.042291, 14.888362], [121.04256, 14.888362], [121.04256, 14.888093], [121.04283, 14.888093], [121.04283, 14.887554], [121.043369, 14.887554], [121.043369, 14.886745], [121.045525, 14.886745], [121.045525, 14.886206], [121.045794, 14.886206], [121.045794, 14.885667], [121.046064, 14.885667], [121.046064, 14.885128], [121.046333, 14.885128], [121.046333, 14.884859], [121.046872, 14.884859], [121.046872, 14.884589], [121.047411, 14.884589], [121.047411, 14.88432], [121.04795, 14.88432], [121.04795, 14.88405], [121.048489, 14.88405], [121.048489, 14.88432], [121.048759, 14.88432], [121.048759, 14.884859], [121.049028, 14.884859], [121.049028, 14.884589], [121.050376, 14.884589], [121.050376, 14.884859], [121.051454, 14.884859], [121.051454, 14.884589], [121.051993, 14.884589], [121.051993, 14.883242], [121.051723, 14.883242], [121.051723, 14.882433], [121.051993, 14.882433], [121.051993, 14.882164], [121.052532, 14.882164], [121.052532, 14.881894], [121.054149, 14.881894], [121.054149, 14.882164], [121.055496, 14.882164], [121.055496, 14.881894], [121.055766, 14.881894], [121.055766, 14.882164], [121.056574, 14.882164], [121.056574, 14.883242], [121.056305, 14.883242], [121.056305, 14.88405], [121.056574, 14.88405], [121.056574, 14.884589], [121.056844, 14.884589], [121.056844, 14.885128], [121.056035, 14.885128], [121.056035, 14.885398], [121.055496, 14.885398], [121.055496, 14.886206], [121.055227, 14.886206], [121.055227, 14.886476], [121.054957, 14.886476], [121.054957, 14.887284], [121.055227, 14.887284], [121.055227, 14.887554], [121.056844, 14.887554], [121.056844, 14.887284], [121.057113, 14.887284], [121.057113, 14.887015], [121.057383, 14.887015], [121.057383, 14.886745], [121.057922, 14.886745], [121.057922, 14.886476], [121.058461, 14.886476], [121.058461, 14.886745], [121.05873, 14.886745], [121.05873, 14.887015], [121.059269, 14.887015], [121.059269, 14.886745], [121.059539, 14.886745], [121.059539, 14.886476], [121.059808, 14.886476], [121.059808, 14.885937], [121.060078, 14.885937], [121.060078, 14.885667], [121.060347, 14.885667], [121.060347, 14.885398], [121.060617, 14.885398], [121.060617, 14.884859], [121.060886, 14.884859], [121.060886, 14.884589], [121.061156, 14.884589], [121.061156, 14.88432], [121.061695, 14.88432], [121.061695, 14.884589], [121.062773, 14.884589], [121.062773, 14.884859], [121.063042, 14.884859], [121.063042, 14.885128], [121.063312, 14.885128], [121.063312, 14.885398], [121.063042, 14.885398], [121.063042, 14.885937], [121.062773, 14.885937], [121.062773, 14.886206], [121.062503, 14.886206], [121.062503, 14.886476], [121.061964, 14.886476], [121.061964, 14.886745], [121.061695, 14.886745], [121.061695, 14.887015], [121.061425, 14.887015], [121.061425, 14.887284], [121.061695, 14.887284], [121.061695, 14.888632], [121.061425, 14.888632], [121.061425, 14.888901], [121.061156, 14.888901], [121.061156, 14.88971], [121.061425, 14.88971], [121.061425, 14.890249], [121.061695, 14.890249], [121.061695, 14.890788], [121.061964, 14.890788], [121.061964, 14.891057], [121.061695, 14.891057], [121.061695, 14.891327], [121.061425, 14.891327], [121.061425, 14.891596], [121.061156, 14.891596], [121.061156, 14.892135], [121.060347, 14.892135], [121.060347, 14.892405], [121.060078, 14.892405], [121.060078, 14.892944], [121.060886, 14.892944], [121.060886, 14.893213], [121.061425, 14.893213], [121.061425, 14.892944], [121.061695, 14.892944], [121.061695, 14.892674], [121.061964, 14.892674], [121.061964, 14.892405], [121.062234, 14.892405], [121.062234, 14.891866], [121.062503, 14.891866], [121.062503, 14.891057], [121.062773, 14.891057], [121.062773, 14.890518], [121.063042, 14.890518], [121.063042, 14.889979], [121.063312, 14.889979], [121.063312, 14.88971], [121.063581, 14.88971], [121.063581, 14.88944], [121.063851, 14.88944], [121.063851, 14.889171], [121.06439, 14.889171], [121.06439, 14.888901], [121.06412, 14.888901], [121.06412, 14.888362], [121.06439, 14.888362], [121.06439, 14.887284], [121.064659, 14.887284], [121.064659, 14.886745], [121.065198, 14.886745], [121.065198, 14.886476], [121.065468, 14.886476], [121.065468, 14.886206], [121.065737, 14.886206], [121.065737, 14.885937], [121.066007, 14.885937], [121.066007, 14.884859], [121.066545, 14.884859], [121.066545, 14.885128], [121.066815, 14.885128], [121.066815, 14.885398], [121.067084, 14.885398], [121.067084, 14.885667], [121.067623, 14.885667], [121.067623, 14.885398], [121.067893, 14.885398], [121.067893, 14.884859], [121.068162, 14.884859], [121.068162, 14.884589], [121.068432, 14.884589], [121.068432, 14.88432], [121.070857, 14.88432], [121.070857, 14.88405], [121.071127, 14.88405], [121.071127, 14.883511], [121.070857, 14.883511], [121.070857, 14.882703], [121.071127, 14.882703], [121.071127, 14.882164], [121.071396, 14.882164], [121.071396, 14.881894], [121.071666, 14.881894], [121.071666, 14.881625], [121.071935, 14.881625], [121.071935, 14.881355], [121.072205, 14.881355], [121.072205, 14.881086], [121.072474, 14.881086], [121.072474, 14.880816], [121.072744, 14.880816], [121.072744, 14.880277], [121.073013, 14.880277], [121.073013, 14.87893], [121.073283, 14.87893], [121.073283, 14.87866], [121.073552, 14.87866], [121.073552, 14.878121], [121.073822, 14.878121], [121.073822, 14.877313], [121.074091, 14.877313], [121.074091, 14.877044], [121.075708, 14.877044], [121.075708, 14.877313], [121.076247, 14.877313], [121.076247, 14.877583], [121.076517, 14.877583], [121.076517, 14.877852], [121.076786, 14.877852], [121.076786, 14.87866], [121.077056, 14.87866], [121.077056, 14.87893], [121.076786, 14.87893], [121.076786, 14.879738], [121.076517, 14.879738], [121.076517, 14.882164], [121.076786, 14.882164], [121.076786, 14.882433], [121.077325, 14.882433], [121.077325, 14.882164], [121.077595, 14.882164], [121.077595, 14.881894], [121.077864, 14.881894], [121.077864, 14.881625], [121.078134, 14.881625], [121.078134, 14.881355], [121.078403, 14.881355], [121.078403, 14.881625], [121.078673, 14.881625], [121.078673, 14.881894], [121.078942, 14.881894], [121.078942, 14.882703], [121.079212, 14.882703], [121.079212, 14.883511], [121.079481, 14.883511], [121.079481, 14.88405], [121.079751, 14.88405], [121.079751, 14.885128], [121.079481, 14.885128], [121.079481, 14.885937], [121.08029, 14.885937], [121.08029, 14.886206], [121.081098, 14.886206], [121.081098, 14.886476], [121.081368, 14.886476], [121.081368, 14.886745], [121.081637, 14.886745], [121.081637, 14.887015], [121.081907, 14.887015], [121.081907, 14.887284], [121.082446, 14.887284], [121.082446, 14.887823], [121.082985, 14.887823], [121.082985, 14.888093], [121.083254, 14.888093], [121.083254, 14.888362], [121.083524, 14.888362], [121.083524, 14.889171], [121.083254, 14.889171], [121.083254, 14.88971], [121.082985, 14.88971], [121.082985, 14.889979], [121.082446, 14.889979], [121.082446, 14.890249], [121.081368, 14.890249], [121.081368, 14.890518], [121.081098, 14.890518], [121.081098, 14.891057], [121.080559, 14.891057], [121.080559, 14.891327], [121.08002, 14.891327], [121.08002, 14.891057], [121.079481, 14.891057], [121.079481, 14.891327], [121.079212, 14.891327], [121.079212, 14.891596], [121.078942, 14.891596], [121.078942, 14.892135], [121.078403, 14.892135], [121.078403, 14.892405], [121.077864, 14.892405], [121.077864, 14.892674], [121.077595, 14.892674], [121.077595, 14.892944], [121.077325, 14.892944], [121.077325, 14.893752], [121.078403, 14.893752], [121.078403, 14.894022], [121.078673, 14.894022], [121.078673, 14.894291], [121.078942, 14.894291], [121.078942, 14.894561], [121.079212, 14.894561], [121.079212, 14.89483], [121.079481, 14.89483], [121.079481, 14.8951], [121.079751, 14.8951], [121.079751, 14.895369], [121.08002, 14.895369], [121.08002, 14.897256], [121.08029, 14.897256], [121.08029, 14.901029], [121.08002, 14.901029], [121.08002, 14.901298], [121.079751, 14.901298], [121.079751, 14.902646], [121.08002, 14.902646], [121.08002, 14.902915], [121.08029, 14.902915], [121.08029, 14.903184], [121.080829, 14.903184], [121.080829, 14.903454], [121.081098, 14.903454], [121.081098, 14.903723], [121.081368, 14.903723], [121.081368, 14.903993], [121.081637, 14.903993], [121.081637, 14.904262], [121.081907, 14.904262], [121.081907, 14.904532], [121.082446, 14.904532], [121.082446, 14.904801], [121.083793, 14.904801], [121.083793, 14.905071], [121.083254, 14.905071], [121.083254, 14.90534], [121.082985, 14.90534], [121.082985, 14.90561], [121.082715, 14.90561], [121.082715, 14.905879], [121.082176, 14.905879], [121.082176, 14.906149], [121.081907, 14.906149], [121.081907, 14.906688], [121.081637, 14.906688], [121.081637, 14.907227], [121.081907, 14.907227], [121.081907, 14.907766], [121.082446, 14.907766], [121.082446, 14.907496], [121.082715, 14.907496], [121.082715, 14.907227], [121.083793, 14.907227], [121.083793, 14.907766], [121.084063, 14.907766], [121.084063, 14.908574], [121.084332, 14.908574], [121.084332, 14.909113], [121.084602, 14.909113], [121.084602, 14.909652], [121.084871, 14.909652], [121.084871, 14.91073], [121.084602, 14.91073], [121.084602, 14.911269], [121.084063, 14.911269], [121.084063, 14.911539], [121.083793, 14.911539], [121.083793, 14.911808], [121.083524, 14.911808], [121.083524, 14.912078], [121.083254, 14.912078], [121.083254, 14.912617], [121.082985, 14.912617], [121.082985, 14.912886], [121.082715, 14.912886], [121.082715, 14.913156], [121.082446, 14.913156], [121.082446, 14.914234], [121.081907, 14.914234], [121.081907, 14.914503], [121.081637, 14.914503], [121.081637, 14.914773], [121.081098, 14.914773], [121.081098, 14.915312], [121.08029, 14.915312], [121.08029, 14.914503], [121.079481, 14.914503], [121.079481, 14.914234], [121.078942, 14.914234], [121.078942, 14.913964], [121.079212, 14.913964], [121.079212, 14.913695], [121.078942, 14.913695], [121.078942, 14.913425], [121.078673, 14.913425], [121.078673, 14.913156], [121.078403, 14.913156], [121.078403, 14.913425], [121.078134, 14.913425], [121.078134, 14.913695], [121.077864, 14.913695], [121.077864, 14.913964], [121.076786, 14.913964], [121.076786, 14.913425], [121.077056, 14.913425], [121.077056, 14.913156], [121.077325, 14.913156], [121.077325, 14.912347], [121.076247, 14.912347], [121.076247, 14.912617], [121.075978, 14.912617], [121.075978, 14.912886], [121.075708, 14.912886], [121.075708, 14.913964], [121.075978, 14.913964], [121.075978, 14.914234], [121.076247, 14.914234], [121.076247, 14.914773], [121.075978, 14.914773], [121.075978, 14.915042], [121.075169, 14.915042], [121.075169, 14.915312], [121.07463, 14.915312], [121.07463, 14.915581], [121.074091, 14.915581], [121.074091, 14.915851], [121.073822, 14.915851], [121.073822, 14.91639], [121.073552, 14.91639], [121.073552, 14.916929], [121.073283, 14.916929], [121.073283, 14.917198], [121.073552, 14.917198], [121.073552, 14.917737], [121.073283, 14.917737], [121.073283, 14.918276], [121.073552, 14.918276], [121.073552, 14.918546], [121.074091, 14.918546], [121.074091, 14.918276], [121.074361, 14.918276], [121.074361, 14.917468], [121.07463, 14.917468], [121.07463, 14.917198], [121.0749, 14.917198], [121.0749, 14.916929], [121.076247, 14.916929], [121.076247, 14.917198], [121.076517, 14.917198], [121.076517, 14.917737], [121.076786, 14.917737], [121.076786, 14.918007], [121.077056, 14.918007], [121.077056, 14.919085], [121.076517, 14.919085], [121.076517, 14.919354], [121.076247, 14.919354], [121.076247, 14.919624], [121.075978, 14.919624], [121.075978, 14.919893], [121.075439, 14.919893], [121.075439, 14.920163], [121.07463, 14.920163], [121.07463, 14.920432], [121.074091, 14.920432], [121.074091, 14.920702], [121.073283, 14.920702], [121.073283, 14.920432], [121.072205, 14.920432], [121.072205, 14.920163], [121.071666, 14.920163], [121.071666, 14.919624], [121.070857, 14.919624], [121.070857, 14.919893], [121.070049, 14.919893], [121.070049, 14.920163], [121.06951, 14.920163], [121.06951, 14.920432], [121.069779, 14.920432], [121.069779, 14.92178], [121.070049, 14.92178], [121.070049, 14.922049], [121.070318, 14.922049], [121.070318, 14.922319], [121.070588, 14.922319], [121.070588, 14.923127], [121.070857, 14.923127], [121.070857, 14.924205], [121.071127, 14.924205], [121.071127, 14.924744], [121.071666, 14.924744], [121.071666, 14.925283], [121.071935, 14.925283], [121.071935, 14.925553], [121.072205, 14.925553], [121.072205, 14.925822], [121.072474, 14.925822], [121.072474, 14.926092], [121.072744, 14.926092], [121.072744, 14.926361], [121.076247, 14.926361], [121.076247, 14.926092], [121.076786, 14.926092], [121.076786, 14.925822], [121.077056, 14.925822], [121.077056, 14.925553], [121.077595, 14.925553], [121.077595, 14.925283], [121.079751, 14.925283], [121.079751, 14.925014], [121.080829, 14.925014], [121.080829, 14.924744], [121.081368, 14.924744], [121.081368, 14.924475], [121.081907, 14.924475], [121.081907, 14.924205], [121.082715, 14.924205], [121.082715, 14.923936], [121.083254, 14.923936], [121.083254, 14.923666], [121.083524, 14.923666], [121.083524, 14.923127], [121.084063, 14.923127], [121.084063, 14.922858], [121.084602, 14.922858], [121.084602, 14.922588], [121.084871, 14.922588], [121.084871, 14.922319], [121.085141, 14.922319], [121.085141, 14.922049], [121.08541, 14.922049], [121.08541, 14.92151], [121.085949, 14.92151], [121.085949, 14.921241], [121.086219, 14.921241], [121.086219, 14.920971], [121.087027, 14.920971], [121.087027, 14.920702], [121.087836, 14.920702], [121.087836, 14.922858], [121.087566, 14.922858], [121.087566, 14.924205], [121.087836, 14.924205], [121.087836, 14.924475], [121.087566, 14.924475], [121.087566, 14.925014], [121.087027, 14.925014], [121.087027, 14.925283], [121.086488, 14.925283], [121.086488, 14.925553], [121.085949, 14.925553], [121.085949, 14.925822], [121.08568, 14.925822], [121.08568, 14.926092], [121.08541, 14.926092], [121.08541, 14.926631], [121.084332, 14.926631], [121.084332, 14.926361], [121.083524, 14.926361], [121.083524, 14.926631], [121.082715, 14.926631], [121.082715, 14.9269], [121.081637, 14.9269], [121.081637, 14.92717], [121.081098, 14.92717], [121.081098, 14.927439], [121.080829, 14.927439], [121.080829, 14.927708], [121.080559, 14.927708], [121.080559, 14.927978], [121.08029, 14.927978], [121.08029, 14.928247], [121.08002, 14.928247], [121.08002, 14.928517], [121.078673, 14.928517], [121.078673, 14.928247], [121.077864, 14.928247], [121.077864, 14.927978], [121.076517, 14.927978], [121.076517, 14.927708], [121.076247, 14.927708], [121.076247, 14.927978], [121.075708, 14.927978], [121.075708, 14.929056], [121.075439, 14.929056], [121.075439, 14.929325], [121.075169, 14.929325], [121.075169, 14.929595], [121.0749, 14.929595], [121.0749, 14.930673], [121.075169, 14.930673], [121.075169, 14.930942], [121.075439, 14.930942], [121.075439, 14.931212], [121.076517, 14.931212], [121.076517, 14.931481], [121.077056, 14.931481], [121.077056, 14.931751], [121.077325, 14.931751], [121.077325, 14.93229], [121.077595, 14.93229], [121.077595, 14.932559], [121.077864, 14.932559], [121.077864, 14.933098], [121.078134, 14.933098], [121.078134, 14.933637], [121.078403, 14.933637], [121.078403, 14.934985], [121.078134, 14.934985], [121.078134, 14.935254], [121.077864, 14.935254], [121.077864, 14.935793], [121.077595, 14.935793], [121.077595, 14.936871], [121.077864, 14.936871], [121.077864, 14.93741], [121.078134, 14.93741], [121.078134, 14.93768], [121.078403, 14.93768], [121.078403, 14.938488], [121.078673, 14.938488], [121.078673, 14.940644], [121.078403, 14.940644], [121.078403, 14.941453], [121.078673, 14.941453], [121.078673, 14.941992], [121.078403, 14.941992], [121.078403, 14.9428], [121.078134, 14.9428], [121.078134, 14.943339], [121.077864, 14.943339], [121.077864, 14.943878], [121.077595, 14.943878], [121.077595, 14.944687], [121.077325, 14.944687], [121.077325, 14.944956], [121.077056, 14.944956], [121.077056, 14.945226], [121.076786, 14.945226], [121.076786, 14.945495], [121.076517, 14.945495], [121.076517, 14.946573], [121.076247, 14.946573], [121.076247, 14.946843], [121.075708, 14.946843], [121.075708, 14.947112], [121.075169, 14.947112], [121.075169, 14.950616], [121.0749, 14.950616], [121.0749, 14.951155], [121.07463, 14.951155], [121.07463, 14.95358], [121.074361, 14.95358], [121.074361, 14.956005], [121.07463, 14.956005], [121.07463, 14.956814], [121.0749, 14.956814], [121.0749, 14.957353], [121.073013, 14.957353], [121.073013, 14.957622], [121.072744, 14.957622], [121.072744, 14.957892], [121.072474, 14.957892], [121.072474, 14.960048], [121.072744, 14.960048], [121.072744, 14.961126], [121.073013, 14.961126], [121.073013, 14.962473], [121.073283, 14.962473], [121.073283, 14.963012], [121.073552, 14.963012], [121.073552, 14.963551], [121.073822, 14.963551], [121.073822, 14.96436], [121.074091, 14.96436], [121.074091, 14.964899], [121.074361, 14.964899], [121.074361, 14.966516], [121.074091, 14.966516], [121.074091, 14.968672], [121.073822, 14.968672], [121.073822, 14.971097], [121.073552, 14.971097], [121.073552, 14.971367], [121.073283, 14.971367], [121.073283, 14.971906], [121.073013, 14.971906], [121.073013, 14.972175], [121.072744, 14.972175], [121.072744, 14.972984], [121.072474, 14.972984], [121.072474, 14.975053], [121.077249, 14.974468], [121.081083, 14.971365]], [[121.11209, 14.896717], [121.11209, 14.896986], [121.111821, 14.896986], [121.111821, 14.897525], [121.111551, 14.897525], [121.111551, 14.898064], [121.111282, 14.898064], [121.111282, 14.898603], [121.111012, 14.898603], [121.111012, 14.898873], [121.110743, 14.898873], [121.110743, 14.899142], [121.110204, 14.899142], [121.110204, 14.899412], [121.109934, 14.899412], [121.109934, 14.899681], [121.109665, 14.899681], [121.109665, 14.90022], [121.109395, 14.90022], [121.109395, 14.90049], [121.108856, 14.90049], [121.108856, 14.900759], [121.108587, 14.900759], [121.108587, 14.901298], [121.108048, 14.901298], [121.108048, 14.901568], [121.105083, 14.901568], [121.105083, 14.901837], [121.104544, 14.901837], [121.104544, 14.901568], [121.104275, 14.901568], [121.104275, 14.901298], [121.102927, 14.901298], [121.102927, 14.901568], [121.102658, 14.901568], [121.102658, 14.902107], [121.102388, 14.902107], [121.102388, 14.902915], [121.102119, 14.902915], [121.102119, 14.903184], [121.101849, 14.903184], [121.101849, 14.902376], [121.10131, 14.902376], [121.10131, 14.902107], [121.100232, 14.902107], [121.100232, 14.901837], [121.099424, 14.901837], [121.099424, 14.902107], [121.099154, 14.902107], [121.099154, 14.902376], [121.098885, 14.902376], [121.098885, 14.902646], [121.098346, 14.902646], [121.098346, 14.902376], [121.097807, 14.902376], [121.097807, 14.90049], [121.097537, 14.90049], [121.097537, 14.90022], [121.097268, 14.90022], [121.097268, 14.899951], [121.096998, 14.899951], [121.096998, 14.899681], [121.096729, 14.899681], [121.096729, 14.899412], [121.096459, 14.899412], [121.096459, 14.899142], [121.09592, 14.899142], [121.09592, 14.898873], [121.095381, 14.898873], [121.095381, 14.899142], [121.094842, 14.899142], [121.094842, 14.899681], [121.094573, 14.899681], [121.094573, 14.901029], [121.094842, 14.901029], [121.094842, 14.901568], [121.095112, 14.901568], [121.095112, 14.902107], [121.095381, 14.902107], [121.095381, 14.903723], [121.095112, 14.903723], [121.095112, 14.904262], [121.094842, 14.904262], [121.094842, 14.904532], [121.094573, 14.904532], [121.094573, 14.904801], [121.093495, 14.904801], [121.093495, 14.904532], [121.093225, 14.904532], [121.093225, 14.904262], [121.092956, 14.904262], [121.092956, 14.902107], [121.093225, 14.902107], [121.093225, 14.901298], [121.092417, 14.901298], [121.092417, 14.901837], [121.092147, 14.901837], [121.092147, 14.902646], [121.091878, 14.902646], [121.091878, 14.904262], [121.091608, 14.904262], [121.091608, 14.904801], [121.091339, 14.904801], [121.091339, 14.905071], [121.091069, 14.905071], [121.091069, 14.90561], [121.091339, 14.90561], [121.091339, 14.905879], [121.091069, 14.905879], [121.091069, 14.906957], [121.091339, 14.906957], [121.091339, 14.907227], [121.091608, 14.907227], [121.091608, 14.907496], [121.091339, 14.907496], [121.091339, 14.908305], [121.091069, 14.908305], [121.091069, 14.908844], [121.089992, 14.908844], [121.089992, 14.908574], [121.089453, 14.908574], [121.089453, 14.908305], [121.088375, 14.908305], [121.088375, 14.908035], [121.086758, 14.908035], [121.086758, 14.907766], [121.086488, 14.907766], [121.086488, 14.907496], [121.086219, 14.907496], [121.086219, 14.906688], [121.086488, 14.906688], [121.086488, 14.906418], [121.086758, 14.906418], [121.086758, 14.906149], [121.087027, 14.906149], [121.087027, 14.905879], [121.086758, 14.905879], [121.086758, 14.90534], [121.08568, 14.90534], [121.08568, 14.90561], [121.084332, 14.90561], [121.084332, 14.90534], [121.084063, 14.90534], [121.084063, 14.903993], [121.084332, 14.903993], [121.084332, 14.903723], [121.084602, 14.903723], [121.084602, 14.902915], [121.084871, 14.902915], [121.084871, 14.901837], [121.084602, 14.901837], [121.084602, 14.901568], [121.085141, 14.901568], [121.085141, 14.902646], [121.08541, 14.902646], [121.08541, 14.902915], [121.08568, 14.902915], [121.08568, 14.903184], [121.085949, 14.903184], [121.085949, 14.903454], [121.086219, 14.903454], [121.086219, 14.903723], [121.086488, 14.903723], [121.086488, 14.903993], [121.087297, 14.903993], [121.087297, 14.903723], [121.087566, 14.903723], [121.087566, 14.903454], [121.087836, 14.903454], [121.087836, 14.902915], [121.088375, 14.902915], [121.088375, 14.902646], [121.088644, 14.902646], [121.088644, 14.902107], [121.088914, 14.902107], [121.088914, 14.901298], [121.088644, 14.901298], [121.088644, 14.901029], [121.088914, 14.901029], [121.088914, 14.90022], [121.089992, 14.90022], [121.089992, 14.898873], [121.089722, 14.898873], [121.089722, 14.898603], [121.089992, 14.898603], [121.089992, 14.898064], [121.090261, 14.898064], [121.090261, 14.897795], [121.090531, 14.897795], [121.090531, 14.897525], [121.091339, 14.897525], [121.091339, 14.897256], [121.091608, 14.897256], [121.091608, 14.897525], [121.092147, 14.897525], [121.092147, 14.897256], [121.092686, 14.897256], [121.092686, 14.896986], [121.093225, 14.896986], [121.093225, 14.896717], [121.094034, 14.896717], [121.094034, 14.896447], [121.094303, 14.896447], [121.094303, 14.896178], [121.094573, 14.896178], [121.094573, 14.895908], [121.097268, 14.895908], [121.097268, 14.896717], [121.096998, 14.896717], [121.096998, 14.896986], [121.09619, 14.896986], [121.09619, 14.897256], [121.095651, 14.897256], [121.095651, 14.896986], [121.095112, 14.896986], [121.095112, 14.897256], [121.094842, 14.897256], [121.094842, 14.897525], [121.094573, 14.897525], [121.094573, 14.897256], [121.094303, 14.897256], [121.094303, 14.897795], [121.094573, 14.897795], [121.094573, 14.898064], [121.094842, 14.898064], [121.094842, 14.897795], [121.095651, 14.897795], [121.095651, 14.898064], [121.096459, 14.898064], [121.096459, 14.897795], [121.098346, 14.897795], [121.098346, 14.898064], [121.099154, 14.898064], [121.099154, 14.898334], [121.099693, 14.898334], [121.099693, 14.898603], [121.100232, 14.898603], [121.100232, 14.898873], [121.100502, 14.898873], [121.100502, 14.899142], [121.10131, 14.899142], [121.10131, 14.899412], [121.10158, 14.899412], [121.10158, 14.898873], [121.102119, 14.898873], [121.102119, 14.899142], [121.102388, 14.899142], [121.102388, 14.899412], [121.102927, 14.899412], [121.102927, 14.899681], [121.105353, 14.899681], [121.105353, 14.899412], [121.105622, 14.899412], [121.105622, 14.899142], [121.105892, 14.899142], [121.105892, 14.898873], [121.106161, 14.898873], [121.106161, 14.897256], [121.106431, 14.897256], [121.106431, 14.896986], [121.107509, 14.896986], [121.107509, 14.897256], [121.108317, 14.897256], [121.108317, 14.897525], [121.108856, 14.897525], [121.108856, 14.897256], [121.109934, 14.897256], [121.109934, 14.896986], [121.110204, 14.896986], [121.110204, 14.896447], [121.110473, 14.896447], [121.110473, 14.895908], [121.110743, 14.895908], [121.110743, 14.895369], [121.111012, 14.895369], [121.111012, 14.8951], [121.111282, 14.8951], [121.111282, 14.89483], [121.111551, 14.89483], [121.111551, 14.894561], [121.11209, 14.894561], [121.11209, 14.894291], [121.11236, 14.894291], [121.11236, 14.894561], [121.112899, 14.894561], [121.112899, 14.8951], [121.112629, 14.8951], [121.112629, 14.896178], [121.11236, 14.896178], [121.11236, 14.896717], [121.11209, 14.896717]], [[121.091878, 14.961665], [121.091608, 14.961665], [121.091608, 14.961395], [121.091069, 14.961395], [121.091069, 14.960587], [121.0908, 14.960587], [121.0908, 14.960317], [121.089992, 14.960317], [121.089992, 14.960587], [121.088914, 14.960587], [121.088914, 14.960856], [121.088375, 14.960856], [121.088375, 14.961126], [121.087297, 14.961126], [121.087297, 14.961395], [121.086758, 14.961395], [121.086758, 14.961934], [121.086488, 14.961934], [121.086488, 14.962204], [121.084602, 14.962204], [121.084602, 14.961934], [121.082446, 14.961934], [121.082446, 14.962204], [121.081907, 14.962204], [121.081907, 14.962473], [121.081637, 14.962473], [121.081637, 14.962743], [121.081098, 14.962743], [121.081098, 14.963012], [121.080829, 14.963012], [121.080829, 14.962743], [121.080559, 14.962743], [121.080559, 14.962473], [121.08029, 14.962473], [121.08029, 14.962204], [121.08002, 14.962204], [121.08002, 14.961395], [121.079751, 14.961395], [121.079751, 14.960856], [121.079481, 14.960856], [121.079481, 14.960587], [121.079212, 14.960587], [121.079212, 14.960317], [121.078942, 14.960317], [121.078942, 14.960048], [121.078673, 14.960048], [121.078673, 14.959778], [121.078403, 14.959778], [121.078403, 14.959239], [121.078134, 14.959239], [121.078134, 14.95897], [121.077325, 14.95897], [121.077325, 14.9587], [121.077056, 14.9587], [121.077056, 14.958161], [121.077325, 14.958161], [121.077325, 14.957622], [121.077864, 14.957622], [121.077864, 14.957353], [121.078134, 14.957353], [121.078134, 14.957083], [121.078403, 14.957083], [121.078403, 14.956814], [121.078673, 14.956814], [121.078673, 14.956544], [121.079751, 14.956544], [121.079751, 14.956275], [121.080559, 14.956275], [121.080559, 14.954658], [121.08029, 14.954658], [121.08029, 14.954119], [121.080559, 14.954119], [121.080559, 14.953849], [121.080829, 14.953849], [121.080829, 14.95358], [121.084332, 14.95358], [121.084332, 14.95331], [121.084602, 14.95331], [121.084602, 14.953041], [121.084871, 14.953041], [121.084871, 14.952233], [121.085141, 14.952233], [121.085141, 14.951963], [121.085949, 14.951963], [121.085949, 14.951694], [121.086219, 14.951694], [121.086219, 14.950346], [121.085949, 14.950346], [121.085949, 14.949807], [121.086219, 14.949807], [121.086219, 14.949538], [121.086488, 14.949538], [121.086488, 14.948999], [121.087027, 14.948999], [121.087027, 14.948729], [121.087297, 14.948729], [121.087297, 14.948999], [121.087836, 14.948999], [121.087836, 14.949538], [121.088105, 14.949538], [121.088105, 14.949807], [121.088644, 14.949807], [121.088644, 14.951424], [121.088914, 14.951424], [121.088914, 14.951694], [121.089183, 14.951694], [121.089183, 14.951963], [121.089453, 14.951963], [121.089453, 14.952233], [121.089722, 14.952233], [121.089722, 14.952502], [121.089992, 14.952502], [121.089992, 14.952771], [121.090531, 14.952771], [121.090531, 14.953041], [121.091069, 14.953041], [121.091069, 14.952771], [121.091339, 14.952771], [121.091339, 14.952502], [121.092147, 14.952502], [121.092147, 14.952771], [121.092417, 14.952771], [121.092417, 14.954927], [121.092686, 14.954927], [121.092686, 14.955197], [121.092956, 14.955197], [121.092956, 14.955466], [121.093225, 14.955466], [121.093225, 14.955736], [121.093495, 14.955736], [121.093495, 14.956005], [121.094034, 14.956005], [121.094034, 14.956275], [121.094303, 14.956275], [121.094303, 14.956544], [121.094573, 14.956544], [121.094573, 14.957083], [121.094842, 14.957083], [121.094842, 14.957353], [121.094573, 14.957353], [121.094573, 14.957622], [121.094303, 14.957622], [121.094303, 14.957892], [121.092147, 14.957892], [121.092147, 14.958161], [121.091878, 14.958161], [121.091878, 14.959239], [121.092147, 14.959239], [121.092147, 14.959778], [121.092417, 14.959778], [121.092417, 14.961126], [121.092147, 14.961126], [121.092147, 14.961395], [121.091878, 14.961395], [121.091878, 14.961665]]], [[[121.058191, 14.936063], [121.058191, 14.936332], [121.057922, 14.936332], [121.057922, 14.938219], [121.058191, 14.938219], [121.058191, 14.938488], [121.058461, 14.938488], [121.058461, 14.938758], [121.05873, 14.938758], [121.05873, 14.939297], [121.059, 14.939297], [121.059, 14.940105], [121.05873, 14.940105], [121.05873, 14.940375], [121.058461, 14.940375], [121.058461, 14.940644], [121.058191, 14.940644], [121.058191, 14.940914], [121.057922, 14.940914], [121.057922, 14.941183], [121.057652, 14.941183], [121.057652, 14.942261], [121.057383, 14.942261], [121.057383, 14.9428], [121.057113, 14.9428], [121.057113, 14.943339], [121.057383, 14.943339], [121.057383, 14.943878], [121.057652, 14.943878], [121.057652, 14.944148], [121.057922, 14.944148], [121.057922, 14.945226], [121.057652, 14.945226], [121.057652, 14.945495], [121.056305, 14.945495], [121.056305, 14.945226], [121.055766, 14.945226], [121.055766, 14.944956], [121.055496, 14.944956], [121.055496, 14.945495], [121.055766, 14.945495], [121.055766, 14.945765], [121.056305, 14.945765], [121.056305, 14.946034], [121.056844, 14.946034], [121.056844, 14.946304], [121.057383, 14.946304], [121.057383, 14.946573], [121.05873, 14.946573], [121.05873, 14.946304], [121.059539, 14.946304], [121.059539, 14.946034], [121.059808, 14.946034], [121.059808, 14.945765], [121.060078, 14.945765], [121.060078, 14.945495], [121.060886, 14.945495], [121.060886, 14.946304], [121.060617, 14.946304], [121.060617, 14.946573], [121.060347, 14.946573], [121.060347, 14.947112], [121.060078, 14.947112], [121.060078, 14.947382], [121.060347, 14.947382], [121.060347, 14.947651], [121.059539, 14.947651], [121.059539, 14.948999], [121.059269, 14.948999], [121.059269, 14.949268], [121.057652, 14.949268], [121.057652, 14.949538], [121.057922, 14.949538], [121.057922, 14.949807], [121.057652, 14.949807], [121.057652, 14.950346], [121.057922, 14.950346], [121.057922, 14.950616], [121.058461, 14.950616], [121.058461, 14.950885], [121.059269, 14.950885], [121.059269, 14.951155], [121.059539, 14.951155], [121.059539, 14.951424], [121.059808, 14.951424], [121.059808, 14.951694], [121.060078, 14.951694], [121.060078, 14.951963], [121.060347, 14.951963], [121.060347, 14.952233], [121.060617, 14.952233], [121.060617, 14.952502], [121.060886, 14.952502], [121.060886, 14.952771], [121.061156, 14.952771], [121.061156, 14.954119], [121.060886, 14.954119], [121.060886, 14.954388], [121.059808, 14.954388], [121.059808, 14.954119], [121.05873, 14.954119], [121.05873, 14.954388], [121.058191, 14.954388], [121.058191, 14.954658], [121.057383, 14.954658], [121.057383, 14.954927], [121.057113, 14.954927], [121.057113, 14.955466], [121.057383, 14.955466], [121.057383, 14.956814], [121.057652, 14.956814], [121.057652, 14.957353], [121.057383, 14.957353], [121.057383, 14.957622], [121.057113, 14.957622], [121.057113, 14.957353], [121.056574, 14.957353], [121.056574, 14.957083], [121.056305, 14.957083], [121.056305, 14.956814], [121.055227, 14.956814], [121.055227, 14.957892], [121.055496, 14.957892], [121.055496, 14.95897], [121.055766, 14.95897], [121.055766, 14.959239], [121.056035, 14.959239], [121.056035, 14.959509], [121.056305, 14.959509], [121.056305, 14.960048], [121.056574, 14.960048], [121.056574, 14.961934], [121.056844, 14.961934], [121.056844, 14.962473], [121.057113, 14.962473], [121.057113, 14.962743], [121.057922, 14.962743], [121.057922, 14.963012], [121.058461, 14.963012], [121.058461, 14.963282], [121.058191, 14.963282], [121.058191, 14.963551], [121.057113, 14.963551], [121.057113, 14.963282], [121.055766, 14.963282], [121.055766, 14.964899], [121.056035, 14.964899], [121.056035, 14.965438], [121.056305, 14.965438], [121.056305, 14.967055], [121.056574, 14.967055], [121.056574, 14.967594], [121.057383, 14.967594], [121.057383, 14.968133], [121.057652, 14.968133], [121.057652, 14.968941], [121.057922, 14.968941], [121.057922, 14.969211], [121.058461, 14.969211], [121.058461, 14.968941], [121.05873, 14.968941], [121.05873, 14.967594], [121.059269, 14.967594], [121.059269, 14.967324], [121.059539, 14.967324], [121.059539, 14.967055], [121.059808, 14.967055], [121.059808, 14.964899], [121.060078, 14.964899], [121.060078, 14.964629], [121.060347, 14.964629], [121.060347, 14.96409], [121.060617, 14.96409], [121.060617, 14.963282], [121.060347, 14.963282], [121.060347, 14.962743], [121.060078, 14.962743], [121.060078, 14.962473], [121.059808, 14.962473], [121.059808, 14.961934], [121.059539, 14.961934], [121.059539, 14.961126], [121.059269, 14.961126], [121.059269, 14.959778], [121.059539, 14.959778], [121.059539, 14.959509], [121.060617, 14.959509], [121.060617, 14.959239], [121.061156, 14.959239], [121.061156, 14.95897], [121.061695, 14.95897], [121.061695, 14.9587], [121.061964, 14.9587], [121.061964, 14.958431], [121.062234, 14.958431], [121.062234, 14.958161], [121.062503, 14.958161], [121.062503, 14.957892], [121.062773, 14.957892], [121.062773, 14.957083], [121.063042, 14.957083], [121.063042, 14.956275], [121.063312, 14.956275], [121.063312, 14.956005], [121.063851, 14.956005], [121.063851, 14.955736], [121.06439, 14.955736], [121.06439, 14.955197], [121.064659, 14.955197], [121.064659, 14.954927], [121.064929, 14.954927], [121.064929, 14.954388], [121.065198, 14.954388], [121.065198, 14.954119], [121.065468, 14.954119], [121.065468, 14.953849], [121.065737, 14.953849], [121.065737, 14.953041], [121.066007, 14.953041], [121.066007, 14.951963], [121.066276, 14.951963], [121.066276, 14.951694], [121.066545, 14.951694], [121.066545, 14.951424], [121.066815, 14.951424], [121.066815, 14.951155], [121.067084, 14.951155], [121.067084, 14.950885], [121.067354, 14.950885], [121.067354, 14.950616], [121.067623, 14.950616], [121.067623, 14.950346], [121.067893, 14.950346], [121.067893, 14.949807], [121.068162, 14.949807], [121.068162, 14.949538], [121.067893, 14.949538], [121.067893, 14.949268], [121.068162, 14.949268], [121.068162, 14.948729], [121.067893, 14.948729], [121.067893, 14.947921], [121.068162, 14.947921], [121.068162, 14.947382], [121.068432, 14.947382], [121.068432, 14.947112], [121.068701, 14.947112], [121.068701, 14.946843], [121.068971, 14.946843], [121.068971, 14.946573], [121.06924, 14.946573], [121.06924, 14.946034], [121.06951, 14.946034], [121.06951, 14.945495], [121.069779, 14.945495], [121.069779, 14.944417], [121.06924, 14.944417], [121.06924, 14.944687], [121.068971, 14.944687], [121.068971, 14.945226], [121.067893, 14.945226], [121.067893, 14.944956], [121.067623, 14.944956], [121.067623, 14.944148], [121.067893, 14.944148], [121.067893, 14.94307], [121.067623, 14.94307], [121.067623, 14.942531], [121.066276, 14.942531], [121.066276, 14.941722], [121.066545, 14.941722], [121.066545, 14.941453], [121.066815, 14.941453], [121.066815, 14.940375], [121.066545, 14.940375], [121.066545, 14.940105], [121.066276, 14.940105], [121.066276, 14.939836], [121.065468, 14.939836], [121.065468, 14.940105], [121.064929, 14.940105], [121.064929, 14.940914], [121.064659, 14.940914], [121.064659, 14.941183], [121.063851, 14.941183], [121.063851, 14.940644], [121.063581, 14.940644], [121.063581, 14.940105], [121.063851, 14.940105], [121.063851, 14.939836], [121.06412, 14.939836], [121.06412, 14.939566], [121.06439, 14.939566], [121.06439, 14.939297], [121.064659, 14.939297], [121.064659, 14.939027], [121.064929, 14.939027], [121.064929, 14.938758], [121.065468, 14.938758], [121.065468, 14.938488], [121.065737, 14.938488], [121.065737, 14.938219], [121.066276, 14.938219], [121.066276, 14.937949], [121.066815, 14.937949], [121.066815, 14.93768], [121.067084, 14.93768], [121.067084, 14.936602], [121.066815, 14.936602], [121.066815, 14.936332], [121.066545, 14.936332], [121.066545, 14.936602], [121.065737, 14.936602], [121.065737, 14.936871], [121.065468, 14.936871], [121.065468, 14.937141], [121.065198, 14.937141], [121.065198, 14.93741], [121.064659, 14.93741], [121.064659, 14.93768], [121.06412, 14.93768], [121.06412, 14.937949], [121.063581, 14.937949], [121.063581, 14.938219], [121.063312, 14.938219], [121.063312, 14.938488], [121.062773, 14.938488], [121.062773, 14.938758], [121.062234, 14.938758], [121.062234, 14.938488], [121.061964, 14.938488], [121.061964, 14.93741], [121.062234, 14.93741], [121.062234, 14.936332], [121.061964, 14.936332], [121.061964, 14.936063], [121.061156, 14.936063], [121.061156, 14.935793], [121.060886, 14.935793], [121.060886, 14.935524], [121.060617, 14.935524], [121.060617, 14.935254], [121.059808, 14.935254], [121.059808, 14.935524], [121.059269, 14.935524], [121.059269, 14.935793], [121.058461, 14.935793], [121.058461, 14.936063], [121.058191, 14.936063]]]]}}, {"type": "Feature", "properties": {"area_id": "angat-river-basin__down", "name": "Angat River Basin (downstream)", "study_type": "river_basin", "zone": "down", "area_ha": 25756.1, "version": 1}, "geometry": {"type": "MultiPolygon", "coordinates": [[[[121.112629, 14.896178], [121.112629, 14.8951], [121.112899, 14.8951], [121.112899, 14.894561], [121.11236, 14.894561], [121.11236, 14.894291], [121.11209, 14.894291], [121.11209, 14.894561], [121.111551, 14.894561], [121.111551, 14.89483], [121.111282, 14.89483], [121.111282, 14.8951], [121.111012, 14.8951], [121.111012, 14.895369], [121.110743, 14.895369], [121.110743, 14.895908], [121.110473, 14.895908], [121.110473, 14.896447], [121.110204, 14.896447], [121.110204, 14.896986], [121.109934, 14.896986], [121.109934, 14.897256], [121.108856, 14.897256], [121.108856, 14.897525], [121.108317, 14.897525], [121.108317, 14.897256], [121.107509, 14.897256], [121.107509, 14.896986], [121.106431, 14.896986], [121.106431, 14.897256], [121.106161, 14.897256], [121.106161, 14.898873], [121.105892, 14.898873], [121.105892, 14.899142], [121.105622, 14.899142], [121.105622, 14.899412], [121.105353, 14.899412], [121.105353, 14.899681], [121.102927, 14.899681], [121.102927, 14.899412], [121.102388, 14.899412], [121.102388, 14.899142], [121.102119, 14.899142], [121.102119, 14.898873], [121.10158, 14.898873], [121.10158, 14.899412], [121.10131, 14.899412], [121.10131, 14.899142], [121.100502, 14.899142], [121.100502, 14.898873], [121.100232, 14.898873], [121.100232, 14.898603], [121.099693, 14.898603], [121.099693, 14.898334], [121.099154, 14.898334], [121.099154, 14.898064], [121.098346, 14.898064], [121.098346, 14.897795], [121.096459, 14.897795], [121.096459, 14.898064], [121.095651, 14.898064], [121.095651, 14.897795], [121.094842, 14.897795], [121.094842, 14.898064], [121.094573, 14.898064], [121.094573, 14.897795], [121.094303, 14.897795], [121.094303, 14.897256], [121.094573, 14.897256], [121.094573, 14.897525], [121.094842, 14.897525], [121.094842, 14.897256], [121.095112, 14.897256], [121.095112, 14.896986], [121.095651, 14.896986], [121.095651, 14.897256], [121.09619, 14.897256], [121.09619, 14.896986], [121.096998, 14.896986], [121.096998, 14.896717], [121.097268, 14.896717], [121.097268, 14.895908], [121.094573, 14.895908], [121.094573, 14.896178], [121.094303, 14.896178], [121.094303, 14.896447], [121.094034, 14.896447], [121.094034, 14.896717], [121.093225, 14.896717], [121.093225, 14.896986], [121.092686, 14.896986], [121.092686, 14.897256], [121.092147, 14.897256], [121.092147, 14.897525], [121.091608, 14.897525], [121.091608, 14.897256], [121.091339, 14.897256], [121.091339, 14.897525], [121.090531, 14.897525], [121.090531, 14.897795], [121.090261, 14.897795], [121.090261, 14.898064], [121.089992, 14.898064], [121.089992, 14.898603], [121.089722, 14.898603], [121.089722, 14.898873], [121.089992, 14.898873], [121.089992, 14.90022], [121.088914, 14.90022], [121.088914, 14.901029], [121.088644, 14.901029], [121.088644, 14.901298], [121.088914, 14.901298], [121.088914, 14.902107], [121.088644, 14.902107], [121.088644, 14.902646], [121.088375, 14.902646], [121.088375, 14.902915], [121.087836, 14.902915], [121.087836, 14.903454], [121.087566, 14.903454], [121.087566, 14.903723], [121.087297, 14.903723], [121.087297, 14.903993], [121.086488, 14.903993], [121.086488, 14.903723], [121.086219, 14.903723], [121.086219, 14.903454], [121.085949, 14.903454], [121.085949, 14.903184], [121.08568, 14.903184], [121.08568, 14.902915], [121.08541, 14.902915], [121.08541, 14.902646], [121.085141, 14.902646], [121.085141, 14.901568], [121.084602, 14.901568], [121.084602, 14.901837], [121.084871, 14.901837], [121.084871, 14.902915], [121.084602, 14.902915], [121.084602, 14.903723], [121.084332, 14.903723], [121.084332, 14.903993], [121.084063, 14.903993], [121.084063, 14.90534], [121.084332, 14.90534], [121.084332, 14.90561], [121.08568, 14.90561], [121.08568, 14.90534], [121.086758, 14.90534], [121.086758, 14.905879], [121.087027, 14.905879], [121.087027, 14.906149], [121.086758, 14.906149], [121.086758, 14.906418], [121.086488, 14.906418], [121.086488, 14.906688], [121.086219, 14.906688], [121.086219, 14.907496], [121.086488, 14.907496], [121.086488, 14.907766], [121.086758, 14.907766], [121.086758, 14.908035], [121.088375, 14.908035], [121.088375, 14.908305], [121.089453, 14.908305], [121.089453, 14.908574], [121.089992, 14.908574], [121.089992, 14.908844], [121.091069, 14.908844], [121.091069, 14.908305], [121.091339, 14.908305], [121.091339, 14.907496], [121.091608, 14.907496], [121.091608, 14.907227], [121.091339, 14.907227], [121.091339, 14.906957], [121.091069, 14.906957], [121.091069, 14.905879], [121.091339, 14.905879], [121.091339, 14.90561], [121.091069, 14.90561], [121.091069, 14.905071], [121.091339, 14.905071], [121.091339, 14.904801], [121.091608, 14.904801], [121.091608, 14.904262], [121.091878, 14.904262], [121.091878, 14.902646], [121.092147, 14.902646], [121.092147, 14.901837], [121.092417, 14.901837], [121.092417, 14.901298], [121.093225, 14.901298], [121.093225, 14.902107], [121.092956, 14.902107], [121.092956, 14.904262], [121.093225, 14.904262], [121.093225, 14.904532], [121.093495, 14.904532], [121.093495, 14.904801], [121.094573, 14.904801], [121.094573, 14.904532], [121.094842, 14.904532], [121.094842, 14.904262], [121.095112, 14.904262], [121.095112, 14.903723], [121.095381, 14.903723], [121.095381, 14.902107], [121.095112, 14.902107], [121.095112, 14.901568], [121.094842, 14.901568], [121.094842, 14.901029], [121.094573, 14.901029], [121.094573, 14.899681], [121.094842, 14.899681], [121.094842, 14.899142], [121.095381, 14.899142], [121.095381, 14.898873], [121.09592, 14.898873], [121.09592, 14.899142], [121.096459, 14.899142], [121.096459, 14.899412], [121.096729, 14.899412], [121.096729, 14.899681], [121.096998, 14.899681], [121.096998, 14.899951], [121.097268, 14.899951], [121.097268, 14.90022], [121.097537, 14.90022], [121.097537, 14.90049], [121.097807, 14.90049], [121.097807, 14.902376], [121.098346, 14.902376], [121.098346, 14.902646], [121.098885, 14.902646], [121.098885, 14.902376], [121.099154, 14.902376], [121.099154, 14.902107], [121.099424, 14.902107], [121.099424, 14.901837], [121.100232, 14.901837], [121.100232, 14.902107], [121.10131, 14.902107], [121.10131, 14.902376], [121.101849, 14.902376], [121.101849, 14.903184], [121.102119, 14.903184], [121.102119, 14.902915], [121.102388, 14.902915], [121.102388, 14.902107], [121.102658, 14.902107], [121.102658, 14.901568], [121.102927, 14.901568], [121.102927, 14.901298], [121.104275, 14.901298], [121.104275, 14.901568], [121.104544, 14.901568], [121.104544, 14.901837], [121.105083, 14.901837], [121.105083, 14.901568], [121.108048, 14.901568], [121.108048, 14.901298], [121.108587, 14.901298], [121.108587, 14.900759], [121.108856, 14.900759], [121.108856, 14.90049], [121.109395, 14.90049], [121.109395, 14.90022], [121.109665, 14.90022], [121.109665, 14.899681], [121.109934, 14.899681], [121.109934, 14.899412], [121.110204, 14.899412], [121.110204, 14.899142], [121.110743, 14.899142], [121.110743, 14.898873], [121.111012, 14.898873], [121.111012, 14.898603], [121.111282, 14.898603], [121.111282, 14.898064], [121.111551, 14.898064], [121.111551, 14.897525], [121.111821, 14.897525], [121.111821, 14.896986], [121.11209, 14.896986], [121.11209, 14.896717], [121.11236, 14.896717], [121.11236, 14.896178], [121.112629, 14.896178]]], [[[120.773044, 14.9339], [120.781124, 14.941101], [120.783331, 14.941667], [120.784241, 14.938122], [120.806376, 14.936932], [120.810416, 14.933801], [120.814456, 14.936932], [120.823044, 14.938069], [120.831124, 14.945266], [120.839712, 14.946398], [120.844697, 14.950264], [120.846744, 14.942283], [120.874087, 14.941052], [120.876139, 14.93307], [120.882363, 14.937895], [120.883902, 14.943879], [120.899433, 14.960289], [120.899999, 14.966665], [120.902425, 14.967022], [120.905908, 14.970482], [120.916667, 14.970834], [120.917323, 14.978205], [120.92279, 14.982767], [120.931378, 14.983899], [120.953143, 15.004732], [120.96471, 15.0036], [120.976954, 14.992233], [120.981378, 14.991101], [120.986756, 14.986932], [120.998046, 14.988069], [121.003419, 14.992233], [121.01471, 14.991101], [121.024065, 14.982767], [121.031378, 14.983899], [121.036755, 14.988069], [121.048046, 14.986932], [121.051957, 14.983899], [121.061611, 14.982624], [121.062498, 14.979168], [121.06475, 14.978638], [121.068584, 14.97553], [121.072474, 14.975053], [121.072474, 14.972984], [121.072744, 14.972984], [121.072744, 14.972175], [121.073013, 14.972175], [121.073013, 14.971906], [121.073283, 14.971906], [121.073283, 14.971367], [121.073552, 14.971367], [121.073552, 14.971097], [121.073822, 14.971097], [121.073822, 14.968672], [121.074091, 14.968672], [121.074091, 14.966516], [121.074361, 14.966516], [121.074361, 14.964899], [121.074091, 14.964899], [121.074091, 14.96436], [121.073822, 14.96436], [121.073822, 14.963551], [121.073552, 14.963551], [121.073552, 14.963012], [121.073283, 14.963012], [121.073283, 14.962473], [121.073013, 14.962473], [121.073013, 14.961126], [121.072744, 14.961126], [121.072744, 14.960048], [121.072474, 14.960048], [121.072474, 14.957892], [121.072744, 14.957892], [121.072744, 14.957622], [121.073013, 14.957622], [121.073013, 14.957353], [121.0749, 14.957353], [121.0749, 14.956814], [121.07463, 14.956814], [121.07463, 14.956005], [121.074361, 14.956005], [121.074361, 14.95358], [121.07463, 14.95358], [121.07463, 14.951155], [121.0749, 14.951155], [121.0749, 14.950616], [121.075169, 14.950616], [121.075169, 14.947112], [121.075708, 14.947112], [121.075708, 14.946843], [121.076247, 14.946843], [121.076247, 14.946573], [121.076517, 14.946573], [121.076517, 14.945495], [121.076786, 14.945495], [121.076786, 14.945226], [121.077056, 14.945226], [121.077056, 14.944956], [121.077325, 14.944956], [121.077325, 14.944687], [121.077595, 14.944687], [121.077595, 14.943878], [121.077864, 14.943878], [121.077864, 14.943339], [121.078134, 14.943339], [121.078134, 14.9428], [121.078403, 14.9428], [121.078403, 14.941992], [121.078673, 14.941992], [121.078673, 14.941453], [121.078403, 14.941453], [121.078403, 14.940644], [121.078673, 14.940644], [121.078673, 14.938488], [121.078403, 14.938488], [121.078403, 14.93768], [121.078134, 14.93768], [121.078134, 14.93741], [121.077864, 14.93741], [121.077864, 14.936871], [121.077595, 14.936871], [121.077595, 14.935793], [121.077864, 14.935793], [121.077864, 14.935254], [121.078134, 14.935254], [121.078134, 14.934985], [121.078403, 14.934985], [121.078403, 14.933637], [121.078134, 14.933637], [121.078134, 14.933098], [121.077864, 14.933098], [121.077864, 14.932559], [121.077595, 14.932559], [121.077595, 14.93229], [121.077325, 14.93229], [121.077325, 14.931751], [121.077056, 14.931751], [121.077056, 14.931481], [121.076517, 14.931481], [121.076517, 14.931212], [121.075439, 14.931212], [121.075439, 14.930942], [121.075169, 14.930942], [121.075169, 14.930673], [121.0749, 14.930673], [121.0749, 14.929595], [121.075169, 14.929595], [121.075169, 14.929325], [121.075439, 14.929325], [121.075439, 14.929056], [121.075708, 14.929056], [121.075708, 14.927978], [121.076247, 14.927978], [121.076247, 14.927708], [121.076517, 14.927708], [121.076517, 14.927978], [121.077864, 14.927978], [121.077864, 14.928247], [121.078673, 14.928247], [121.078673, 14.928517], [121.08002, 14.928517], [121.08002, 14.928247], [121.08029, 14.928247], [121.08029, 14.927978], [121.080559, 14.927978], [121.080559, 14.927708], [121.080829, 14.927708], [121.080829, 14.927439], [121.081098, 14.927439], [121.081098, 14.92717], [121.081637, 14.92717], [121.081637, 14.9269], [121.082715, 14.9269], [121.082715, 14.926631], [121.083524, 14.926631], [121.083524, 14.926361], [121.084332, 14.926361], [121.084332, 14.926631], [121.08541, 14.926631], [121.08541, 14.926092], [121.08568, 14.926092], [121.08568, 14.925822], [121.085949, 14.925822], [121.085949, 14.925553], [121.086488, 14.925553], [121.086488, 14.925283], [121.087027, 14.925283], [121.087027, 14.925014], [121.087566, 14.925014], [121.087566, 14.924475], [121.087836, 14.924475], [121.087836, 14.924205], [121.087566, 14.924205], [121.087566, 14.922858], [121.087836, 14.922858], [121.087836, 14.920702], [121.087027, 14.920702], [121.087027, 14.920971], [121.086219, 14.920971], [121.086219, 14.921241], [121.085949, 14.921241], [121.085949, 14.92151], [121.08541, 14.92151], [121.08541, 14.922049], [121.085141, 14.922049], [121.085141, 14.922319], [121.084871, 14.922319], [121.084871, 14.922588], [121.084602, 14.922588], [121.084602, 14.922858], [121.084063, 14.922858], [121.084063, 14.923127], [121.083524, 14.923127], [121.083524, 14.923666], [121.083254, 14.923666], [121.083254, 14.923936], [121.082715, 14.923936], [121.082715, 14.924205], [121.081907, 14.924205], [121.081907, 14.924475], [121.081368, 14.924475], [121.081368, 14.924744], [121.080829, 14.924744], [121.080829, 14.925014], [121.079751, 14.925014], [121.079751, 14.925283], [121.077595, 14.925283], [121.077595, 14.925553], [121.077056, 14.925553], [121.077056, 14.925822], [121.076786, 14.925822], [121.076786, 14.926092], [121.076247, 14.926092], [121.076247, 14.926361], [121.072744, 14.926361], [121.072744, 14.926092], [121.072474, 14.926092], [121.072474, 14.925822], [121.072205, 14.925822], [121.072205, 14.925553], [121.071935, 14.925553], [121.071935, 14.925283], [121.071666, 14.925283], [121.071666, 14.924744], [121.071127, 14.924744], [121.071127, 14.924205], [121.070857, 14.924205], [121.070857, 14.923127], [121.070588, 14.923127], [121.070588, 14.922319], [121.070318, 14.922319], [121.070318, 14.922049], [121.070049, 14.922049], [121.070049, 14.92178], [121.069779, 14.92178], [121.069779, 14.920432], [121.06951, 14.920432], [121.06951, 14.920163], [121.070049, 14.920163], [121.070049, 14.919893], [121.070857, 14.919893], [121.070857, 14.919624], [121.071666, 14.919624], [121.071666, 14.920163], [121.072205, 14.920163], [121.072205, 14.920432], [121.073283, 14.920432], [121.073283, 14.920702], [121.074091, 14.920702], [121.074091, 14.920432], [121.07463, 14.920432], [121.07463, 14.920163], [121.075439, 14.920163], [121.075439, 14.919893], [121.075978, 14.919893], [121.075978, 14.919624], [121.076247, 14.919624], [121.076247, 14.919354], [121.076517, 14.919354], [121.076517, 14.919085], [121.077056, 14.919085], [121.077056, 14.918007], [121.076786, 14.918007], [121.076786, 14.917737], [121.076517, 14.917737], [121.076517, 14.917198], [121.076247, 14.917198], [121.076247, 14.916929], [121.0749, 14.916929], [121.0749, 14.917198], [121.07463, 14.917198], [121.07463, 14.917468], [121.074361, 14.917468], [121.074361, 14.918276], [121.074091, 14.918276], [121.074091, 14.918546], [121.073552, 14.918546], [121.073552, 14.918276], [121.073283, 14.918276], [121.073283, 14.917737], [121.073552, 14.917737], [121.073552, 14.917198], [121.073283, 14.917198], [121.073283, 14.916929], [121.073552, 14.916929], [121.073552, 14.91639], [121.073822, 14.91639], [121.073822, 14.915851], [121.074091, 14.915851], [121.074091, 14.915581], [121.07463, 14.915581], [121.07463, 14.915312], [121.075169, 14.915312], [121.075169, 14.915042], [121.075978, 14.915042], [121.075978, 14.914773], [121.076247, 14.914773], [121.076247, 14.914234], [121.075978, 14.914234], [121.075978, 14.913964], [121.075708, 14.913964], [121.075708, 14.912886], [121.075978, 14.912886], [121.075978, 14.912617], [121.076247, 14.912617], [121.076247, 14.912347], [121.077325, 14.912347], [121.077325, 14.913156], [121.077056, 14.913156], [121.077056, 14.913425], [121.076786, 14.913425], [121.076786, 14.913964], [121.077864, 14.913964], [121.077864, 14.913695], [121.078134, 14.913695], [121.078134, 14.913425], [121.078403, 14.913425], [121.078403, 14.913156], [121.078673, 14.913156], [121.078673, 14.913425], [121.078942, 14.913425], [121.078942, 14.913695], [121.079212, 14.913695], [121.079212, 14.913964], [121.078942, 14.913964], [121.078942, 14.914234], [121.079481, 14.914234], [121.079481, 14.914503], [121.08029, 14.914503], [121.08029, 14.915312], [121.081098, 14.915312], [121.081098, 14.914773], [121.081637, 14.914773], [121.081637, 14.914503], [121.081907, 14.914503], [121.081907, 14.914234], [121.082446, 14.914234], [121.082446, 14.913156], [121.082715, 14.913156], [121.082715, 14.912886], [121.082985, 14.912886], [121.082985, 14.912617], [121.083254, 14.912617], [121.083254, 14.912078], [121.083524, 14.912078], [121.083524, 14.911808], [121.083793, 14.911808], [121.083793, 14.911539], [121.084063, 14.911539], [121.084063, 14.911269], [121.084602, 14.911269], [121.084602, 14.91073], [121.084871, 14.91073], [121.084871, 14.909652], [121.084602, 14.909652], [121.084602, 14.909113], [121.084332, 14.909113], [121.084332, 14.908574], [121.084063, 14.908574], [121.084063, 14.907766], [121.083793, 14.907766], [121.083793, 14.907227], [121.082715, 14.907227], [121.082715, 14.907496], [121.082446, 14.907496], [121.082446, 14.907766], [121.081907, 14.907766], [121.081907, 14.907227], [121.081637, 14.907227], [121.081637, 14.906688], [121.081907, 14.906688], [121.081907, 14.906149], [121.082176, 14.906149], [121.082176, 14.905879], [121.082715, 14.905879], [121.082715, 14.90561], [121.082985, 14.90561], [121.082985, 14.90534], [121.083254, 14.90534], [121.083254, 14.905071], [121.083793, 14.905071], [121.083793, 14.904801], [121.082446, 14.904801], [121.082446, 14.904532], [121.081907, 14.904532], [121.081907, 14.904262], [121.081637, 14.904262], [121.081637, 14.903993], [121.081368, 14.903993], [121.081368, 14.903723], [121.081098, 14.903723], [121.081098, 14.903454], [121.080829, 14.903454], [121.080829, 14.903184], [121.08029, 14.903184], [121.08029, 14.902915], [121.08002, 14.902915], [121.08002, 14.902646], [121.079751, 14.902646], [121.079751, 14.901298], [121.08002, 14.901298], [121.08002, 14.901029], [121.08029, 14.901029], [121.08029, 14.897256], [121.08002, 14.897256], [121.08002, 14.895369], [121.079751, 14.895369], [121.079751, 14.8951], [121.079481, 14.8951], [121.079481, 14.89483], [121.079212, 14.89483], [121.079212, 14.894561], [121.078942, 14.894561], [121.078942, 14.894291], [121.078673, 14.894291], [121.078673, 14.894022], [121.078403, 14.894022], [121.078403, 14.893752], [121.077325, 14.893752], [121.077325, 14.892944], [121.077595, 14.892944], [121.077595, 14.892674], [121.077864, 14.892674], [121.077864, 14.892405], [121.078403, 14.892405], [121.078403, 14.892135], [121.078942, 14.892135], [121.078942, 14.891596], [121.079212, 14.891596], [121.079212, 14.891327], [121.079481, 14.891327], [121.079481, 14.891057], [121.08002, 14.891057], [121.08002, 14.891327], [121.080559, 14.891327], [121.080559, 14.891057], [121.081098, 14.891057], [121.081098, 14.890518], [121.081368, 14.890518], [121.081368, 14.890249], [121.082446, 14.890249], [121.082446, 14.889979], [121.082985, 14.889979], [121.082985, 14.88971], [121.083254, 14.88971], [121.083254, 14.889171], [121.083524, 14.889171], [121.083524, 14.888362], [121.083254, 14.888362], [121.083254, 14.888093], [121.082985, 14.888093], [121.082985, 14.887823], [121.082446, 14.887823], [121.082446, 14.887284], [121.081907, 14.887284], [121.081907, 14.887015], [121.081637, 14.887015], [121.081637, 14.886745], [121.081368, 14.886745], [121.081368, 14.886476], [121.081098, 14.886476], [121.081098, 14.886206], [121.08029, 14.886206], [121.08029, 14.885937], [121.079481, 14.885937], [121.079481, 14.885128], [121.079751, 14.885128], [121.079751, 14.88405], [121.079481, 14.88405], [121.079481, 14.883511], [121.079212, 14.883511], [121.079212, 14.882703], [121.078942, 14.882703], [121.078942, 14.881894], [121.078673, 14.881894], [121.078673, 14.881625], [121.078403, 14.881625], [121.078403, 14.881355], [121.078134, 14.881355], [121.078134, 14.881625], [121.077864, 14.881625], [121.077864, 14.881894], [121.077595, 14.881894], [121.077595, 14.882164], [121.077325, 14.882164], [121.077325, 14.882433], [121.076786, 14.882433], [121.076786, 14.882164], [121.076517, 14.882164], [121.076517, 14.879738], [121.076786, 14.879738], [121.076786, 14.87893], [121.077056, 14.87893], [121.077056, 14.87866], [121.076786, 14.87866], [121.076786, 14.877852], [121.076517, 14.877852], [121.076517, 14.877583], [121.076247, 14.877583], [121.076247, 14.877313], [121.075708, 14.877313], [121.075708, 14.877044], [121.074091, 14.877044], [121.074091, 14.877313], [121.073822, 14.877313], [121.073822, 14.878121], [121.073552, 14.878121], [121.073552, 14.87866], [121.073283, 14.87866], [121.073283, 14.87893], [121.073013, 14.87893], [121.073013, 14.880277], [121.072744, 14.880277], [121.072744, 14.880816], [121.072474, 14.880816], [121.072474, 14.881086], [121.072205, 14.881086], [121.072205, 14.881355], [121.071935, 14.881355], [121.071935, 14.881625], [121.071666, 14.881625], [121.071666, 14.881894], [121.071396, 14.881894], [121.071396, 14.882164], [121.071127, 14.882164], [121.071127, 14.882703], [121.070857, 14.882703], [121.070857, 14.883511], [121.071127, 14.883511], [121.071127, 14.88405], [121.070857, 14.88405], [121.070857, 14.88432], [121.068432, 14.88432], [121.068432, 14.884589], [121.068162, 14.884589], [121.068162, 14.884859], [121.067893, 14.884859], [121.067893, 14.885398], [121.067623, 14.885398], [121.067623, 14.885667], [121.067084, 14.885667], [121.067084, 14.885398], [121.066815, 14.885398], [121.066815, 14.885128], [121.066545, 14.885128], [121.066545, 14.884859], [121.066007, 14.884859], [121.066007, 14.885937], [121.065737, 14.885937], [121.065737, 14.886206], [121.065468, 14.886206], [121.065468, 14.886476], [121.065198, 14.886476], [121.065198, 14.886745], [121.064659, 14.886745], [121.064659, 14.887284], [121.06439, 14.887284], [121.06439, 14.888362], [121.06412, 14.888362], [121.06412, 14.888901], [121.06439, 14.888901], [121.06439, 14.889171], [121.063851, 14.889171], [121.063851, 14.88944], [121.063581, 14.88944], [121.063581, 14.88971], [121.063312, 14.88971], [121.063312, 14.889979], [121.063042, 14.889979], [121.063042, 14.890518], [121.062773, 14.890518], [121.062773, 14.891057], [121.062503, 14.891057], [121.062503, 14.891866], [121.062234, 14.891866], [121.062234, 14.892405], [121.061964, 14.892405], [121.061964, 14.892674], [121.061695, 14.892674], [121.061695, 14.892944], [121.061425, 14.892944], [121.061425, 14.893213], [121.060886, 14.893213], [121.060886, 14.892944], [121.060078, 14.892944], [121.060078, 14.892405], [121.060347, 14.892405], [121.060347, 14.892135], [121.061156, 14.892135], [121.061156, 14.891596], [121.061425, 14.891596], [121.061425, 14.891327], [121.061695, 14.891327], [121.061695, 14.891057], [121.061964, 14.891057], [121.061964, 14.890788], [121.061695, 14.890788], [121.061695, 14.890249], [121.061425, 14.890249], [121.061425, 14.88971], [121.061156, 14.88971], [121.061156, 14.888901], [121.061425, 14.888901], [121.061425, 14.888632], [121.061695, 14.888632], [121.061695, 14.887284], [121.061425, 14.887284], [121.061425, 14.887015], [121.061695, 14.887015], [121.061695, 14.886745], [121.061964, 14.886745], [121.061964, 14.886476], [121.062503, 14.886476], [121.062503, 14.886206], [121.062773, 14.886206], [121.062773, 14.885937], [121.063042, 14.885937], [121.063042, 14.885398], [121.063312, 14.885398], [121.063312, 14.885128], [121.063042, 14.885128], [121.063042, 14.884859], [121.062773, 14.884859], [121.062773, 14.884589], [121.061695, 14.884589], [121.061695, 14.88432], [121.061156, 14.88432], [121.061156, 14.884589], [121.060886, 14.884589], [121.060886, 14.884859], [121.060617, 14.884859], [121.060617, 14.885398], [121.060347, 14.885398], [121.060347, 14.885667], [121.060078, 14.885667], [121.060078, 14.885937], [121.059808, 14.885937], [121.059808, 14.886476], [121.059539, 14.886476], [121.059539, 14.886745], [121.059269, 14.886745], [121.059269, 14.887015], [121.05873, 14.887015], [121.05873, 14.886745], [121.058461, 14.886745], [121.058461, 14.886476], [121.057922, 14.886476], [121.057922, 14.886745], [121.057383, 14.886745], [121.057383, 14.887015], [121.057113, 14.887015], [121.057113, 14.887284], [121.056844, 14.887284], [121.056844, 14.887554], [121.055227, 14.887554], [121.055227, 14.887284], [121.054957, 14.887284], [121.054957, 14.886476], [121.055227, 14.886476], [121.055227, 14.886206], [121.055496, 14.886206], [121.055496, 14.885398], [121.056035, 14.885398], [121.056035, 14.885128], [121.056844, 14.885128], [121.056844, 14.884589], [121.056574, 14.884589], [121.056574, 14.88405], [121.056305, 14.88405], [121.056305, 14.883242], [121.056574, 14.883242], [121.056574, 14.882164], [121.055766, 14.882164], [121.055766, 14.881894], [121.055496, 14.881894], [121.055496, 14.882164], [121.054149, 14.882164], [121.054149, 14.881894], [121.052532, 14.881894], [121.052532, 14.882164], [121.051993, 14.882164], [121.051993, 14.882433], [121.051723, 14.882433], [121.051723, 14.883242], [121.051993, 14.883242], [121.051993, 14.884589], [121.051454, 14.884589], [121.051454, 14.884859], [121.050376, 14.884859], [121.050376, 14.884589], [121.049028, 14.884589], [121.049028, 14.884859], [121.048759, 14.884859], [121.048759, 14.88432], [121.048489, 14.88432], [121.048489, 14.88405], [121.04795, 14.88405], [121.04795, 14.88432], [121.047411, 14.88432], [121.047411, 14.884589], [121.046872, 14.884589], [121.046872, 14.884859], [121.046333, 14.884859], [121.046333, 14.885128], [121.046064, 14.885128], [121.046064, 14.885667], [121.045794, 14.885667], [121.045794, 14.886206], [121.045525, 14.886206], [121.045525, 14.886745], [121.043369, 14.886745], [121.043369, 14.887554], [121.04283, 14.887554], [121.04283, 14.888093], [121.04256, 14.888093], [121.04256, 14.888362], [121.042291, 14.888362], [121.042291, 14.888632], [121.041213, 14.888632], [121.041213, 14.888901], [121.040944, 14.888901], [121.040944, 14.889171], [121.041213, 14.889171], [121.041213, 14.890518], [121.040405, 14.890518], [121.040405, 14.890788], [121.040135, 14.890788], [121.040135, 14.890518], [121.039327, 14.890518], [121.039327, 14.890249], [121.039057, 14.890249], [121.039057, 14.889979], [121.038788, 14.889979], [121.038788, 14.88944], [121.037979, 14.88944], [121.037979, 14.890518], [121.038249, 14.890518], [121.038249, 14.891057], [121.038518, 14.891057], [121.038518, 14.891327], [121.039057, 14.891327], [121.039057, 14.891866], [121.039327, 14.891866], [121.039327, 14.892405], [121.039596, 14.892405], [121.039596, 14.892674], [121.039057, 14.892674], [121.039057, 14.892944], [121.036362, 14.892944], [121.036362, 14.892674], [121.035823, 14.892674], [121.035823, 14.892405], [121.035554, 14.892405], [121.035554, 14.891866], [121.035284, 14.891866], [121.035284, 14.891596], [121.034745, 14.891596], [121.034745, 14.891327], [121.034476, 14.891327], [121.034476, 14.891089], [121.017381, 14.892425], [121.016667, 14.908336], [121.005907, 14.908688], [121.002425, 14.912148], [120.991665, 14.9125], [120.985288, 14.913067], [120.977209, 14.920268], [120.971684, 14.921686], [120.970266, 14.927211], [120.967234, 14.931122], [120.966101, 14.935545], [120.961579, 14.940963], [120.951957, 14.942234], [120.943877, 14.949431], [120.920832, 14.950001], [120.91327, 14.94923], [120.911856, 14.935367], [120.900641, 14.92297], [120.899295, 14.901045], [120.895834, 14.900001], [120.893409, 14.899645], [120.881592, 14.887855], [120.872576, 14.887146], [120.869093, 14.883686], [120.858333, 14.883333], [120.843623, 14.882767], [120.839712, 14.879735], [120.835289, 14.878598], [120.82592, 14.87025], [120.824101, 14.863156], [120.809546, 14.861934], [120.807446, 14.870125], [120.797788, 14.871401], [120.788664, 14.879534], [120.786934, 14.872788], [120.782413, 14.86737], [120.77172, 14.865956], [120.770833, 14.8625], [120.768407, 14.862853], [120.762855, 14.868378], [120.762146, 14.877425], [120.754521, 14.885077], [120.754169, 14.895832], [120.753812, 14.902423], [120.750352, 14.90591], [120.75, 14.908335], [120.75, 14.9125], [120.752211, 14.913067], [120.756122, 14.916099], [120.762106, 14.917633], [120.766101, 14.922787], [120.767377, 14.932446], [120.773044, 14.9339]], [[121.059269, 14.935793], [121.059269, 14.935524], [121.059808, 14.935524], [121.059808, 14.935254], [121.060617, 14.935254], [121.060617, 14.935524], [121.060886, 14.935524], [121.060886, 14.935793], [121.061156, 14.935793], [121.061156, 14.936063], [121.061964, 14.936063], [121.061964, 14.936332], [121.062234, 14.936332], [121.062234, 14.93741], [121.061964, 14.93741], [121.061964, 14.938488], [121.062234, 14.938488], [121.062234, 14.938758], [121.062773, 14.938758], [121.062773, 14.938488], [121.063312, 14.938488], [121.063312, 14.938219], [121.063581, 14.938219], [121.063581, 14.937949], [121.06412, 14.937949], [121.06412, 14.93768], [121.064659, 14.93768], [121.064659, 14.93741], [121.065198, 14.93741], [121.065198, 14.937141], [121.065468, 14.937141], [121.065468, 14.936871], [121.065737, 14.936871], [121.065737, 14.936602], [121.066545, 14.936602], [121.066545, 14.936332], [121.066815, 14.936332], [121.066815, 14.936602], [121.067084, 14.936602], [121.067084, 14.93768], [121.066815, 14.93768], [121.066815, 14.937949], [121.066276, 14.937949], [121.066276, 14.938219], [121.065737, 14.938219], [121.065737, 14.938488], [121.065468, 14.938488], [121.065468, 14.938758], [121.064929, 14.938758], [121.064929, 14.939027], [121.064659, 14.939027], [121.064659, 14.939297], [121.06439, 14.939297], [121.06439, 14.939566], [121.06412, 14.939566], [121.06412, 14.939836], [121.063851, 14.939836], [121.063851, 14.940105], [121.063581, 14.940105], [121.063581, 14.940644], [121.063851, 14.940644], [121.063851, 14.941183], [121.064659, 14.941183], [121.064659, 14.940914], [121.064929, 14.940914], [121.064929, 14.940105], [121.065468, 14.940105], [121.065468, 14.939836], [121.066276, 14.939836], [121.066276, 14.940105], [121.066545, 14.940105], [121.066545, 14.940375], [121.066815, 14.940375], [121.066815, 14.941453], [121.066545, 14.941453], [121.066545, 14.941722], [121.066276, 14.941722], [121.066276, 14.942531], [121.067623, 14.942531], [121.067623, 14.94307], [121.067893, 14.94307], [121.067893, 14.944148], [121.067623, 14.944148], [121.067623, 14.944956], [121.067893, 14.944956], [121.067893, 14.945226], [121.068971, 14.945226], [121.068971, 14.944687], [121.06924, 14.944687], [121.06924, 14.944417], [121.069779, 14.944417], [121.069779, 14.945495], [121.06951, 14.945495], [121.06951, 14.946034], [121.06924, 14.946034], [121.06924, 14.946573], [121.068971, 14.946573], [121.068971, 14.946843], [121.068701, 14.946843], [121.068701, 14.947112], [121.068432, 14.947112], [121.068432, 14.947382], [121.068162, 14.947382], [121.068162, 14.947921], [121.067893, 14.947921], [121.067893, 14.948729], [121.068162, 14.948729], [121.068162, 14.949268], [121.067893, 14.949268], [121.067893, 14.949538], [121.068162, 14.949538], [121.068162, 14.949807], [121.067893, 14.949807], [121.067893, 14.950346], [121.067623, 14.950346], [121.067623, 14.950616], [121.067354, 14.950616], [121.067354, 14.950885], [121.067084, 14.950885], [121.067084, 14.951155], [121.066815, 14.951155], [121.066815, 14.951424], [121.066545, 14.951424], [121.066545, 14.951694], [121.066276, 14.951694], [121.066276, 14.951963], [121.066007, 14.951963], [121.066007, 14.953041], [121.065737, 14.953041], [121.065737, 14.953849], [121.065468, 14.953849], [121.065468, 14.954119], [121.065198, 14.954119], [121.065198, 14.954388], [121.064929, 14.954388], [121.064929, 14.954927], [121.064659, 14.954927], [121.064659, 14.955197], [121.06439, 14.955197], [121.06439, 14.955736], [121.063851, 14.955736], [121.063851, 14.956005], [121.063312, 14.956005], [121.063312, 14.956275], [121.063042, 14.956275], [121.063042, 14.957083], [121.062773, 14.957083], [121.062773, 14.957892], [121.062503, 14.957892], [121.062503, 14.958161], [121.062234, 14.958161], [121.062234, 14.958431], [121.061964, 14.958431], [121.061964, 14.9587], [121.061695, 14.9587], [121.061695, 14.95897], [121.061156, 14.95897], [121.061156, 14.959239], [121.060617, 14.959239], [121.060617, 14.959509], [121.059539, 14.959509], [121.059539, 14.959778], [121.059269, 14.959778], [121.059269, 14.961126], [121.059539, 14.961126], [121.059539, 14.961934], [121.059808, 14.961934], [121.059808, 14.962473], [121.060078, 14.962473], [121.060078, 14.962743], [121.060347, 14.962743], [121.060347, 14.963282], [121.060617, 14.963282], [121.060617, 14.96409], [121.060347, 14.96409], [121.060347, 14.964629], [121.060078, 14.964629], [121.060078, 14.964899], [121.059808, 14.964899], [121.059808, 14.967055], [121.059539, 14.967055], [121.059539, 14.967324], [121.059269, 14.967324], [121.059269, 14.967594], [121.05873, 14.967594], [121.05873, 14.968941], [121.058461, 14.968941], [121.058461, 14.969211], [121.057922, 14.969211], [121.057922, 14.968941], [121.057652, 14.968941], [121.057652, 14.968133], [121.057383, 14.968133], [121.057383, 14.967594], [121.056574, 14.967594], [121.056574, 14.967055], [121.056305, 14.967055], [121.056305, 14.965438], [121.056035, 14.965438], [121.056035, 14.964899], [121.055766, 14.964899], [121.055766, 14.963282], [121.057113, 14.963282], [121.057113, 14.963551], [121.058191, 14.963551], [121.058191, 14.963282], [121.058461, 14.963282], [121.058461, 14.963012], [121.057922, 14.963012], [121.057922, 14.962743], [121.057113, 14.962743], [121.057113, 14.962473], [121.056844, 14.962473], [121.056844, 14.961934], [121.056574, 14.961934], [121.056574, 14.960048], [121.056305, 14.960048], [121.056305, 14.959509], [121.056035, 14.959509], [121.056035, 14.959239], [121.055766, 14.959239], [121.055766, 14.95897], [121.055496, 14.95897], [121.055496, 14.957892], [121.055227, 14.957892], [121.055227, 14.956814], [121.056305, 14.956814], [121.056305, 14.957083], [121.056574, 14.957083], [121.056574, 14.957353], [121.057113, 14.957353], [121.057113, 14.957622], [121.057383, 14.957622], [121.057383, 14.957353], [121.057652, 14.957353], [121.057652, 14.956814], [121.057383, 14.956814], [121.057383, 14.955466], [121.057113, 14.955466], [121.057113, 14.954927], [121.057383, 14.954927], [121.057383, 14.954658], [121.058191, 14.954658], [121.058191, 14.954388], [121.05873, 14.954388], [121.05873, 14.954119], [121.059808, 14.954119], [121.059808, 14.954388], [121.060886, 14.954388], [121.060886, 14.954119], [121.061156, 14.954119], [121.061156, 14.952771], [121.060886, 14.952771], [121.060886, 14.952502], [121.060617, 14.952502], [121.060617, 14.952233], [121.060347, 14.952233], [121.060347, 14.951963], [121.060078, 14.951963], [121.060078, 14.951694], [121.059808, 14.951694], [121.059808, 14.951424], [121.059539, 14.951424], [121.059539, 14.951155], [121.059269, 14.951155], [121.059269, 14.950885], [121.058461, 14.950885], [121.058461, 14.950616], [121.057922, 14.950616], [121.057922, 14.950346], [121.057652, 14.950346], [121.057652, 14.949807], [121.057922, 14.949807], [121.057922, 14.949538], [121.057652, 14.949538], [121.057652, 14.949268], [121.059269, 14.949268], [121.059269, 14.948999], [121.059539, 14.948999], [121.059539, 14.947651], [121.060347, 14.947651], [121.060347, 14.947382], [121.060078, 14.947382], [121.060078, 14.947112], [121.060347, 14.947112], [121.060347, 14.946573], [121.060617, 14.946573], [121.060617, 14.946304], [121.060886, 14.946304], [121.060886, 14.945495], [121.060078, 14.945495], [121.060078, 14.945765], [121.059808, 14.945765], [121.059808, 14.946034], [121.059539, 14.946034], [121.059539, 14.946304], [121.05873, 14.946304], [121.05873, 14.946573], [121.057383, 14.946573], [121.057383, 14.946304], [121.056844, 14.946304], [121.056844, 14.946034], [121.056305, 14.946034], [121.056305, 14.945765], [121.055766, 14.945765], [121.055766, 14.945495], [121.055496, 14.945495], [121.055496, 14.944956], [121.055766, 14.944956], [121.055766, 14.945226], [121.056305, 14.945226], [121.056305, 14.945495], [121.057652, 14.945495], [121.057652, 14.945226], [121.057922, 14.945226], [121.057922, 14.944148], [121.057652, 14.944148], [121.057652, 14.943878], [121.057383, 14.943878], [121.057383, 14.943339], [121.057113, 14.943339], [121.057113, 14.9428], [121.057383, 14.9428], [121.057383, 14.942261], [121.057652, 14.942261], [121.057652, 14.941183], [121.057922, 14.941183], [121.057922, 14.940914], [121.058191, 14.940914], [121.058191, 14.940644], [121.058461, 14.940644], [121.058461, 14.940375], [121.05873, 14.940375], [121.05873, 14.940105], [121.059, 14.940105], [121.059, 14.939297], [121.05873, 14.939297], [121.05873, 14.938758], [121.058461, 14.938758], [121.058461, 14.938488], [121.058191, 14.938488], [121.058191, 14.938219], [121.057922, 14.938219], [121.057922, 14.936332], [121.058191, 14.936332], [121.058191, 14.936063], [121.058461, 14.936063], [121.058461, 14.935793], [121.059269, 14.935793]]], [[[121.092147, 14.961126], [121.092417, 14.961126], [121.092417, 14.959778], [121.092147, 14.959778], [121.092147, 14.959239], [121.091878, 14.959239], [121.091878, 14.958161], [121.092147, 14.958161], [121.092147, 14.957892], [121.094303, 14.957892], [121.094303, 14.957622], [121.094573, 14.957622], [121.094573, 14.957353], [121.094842, 14.957353], [121.094842, 14.957083], [121.094573, 14.957083], [121.094573, 14.956544], [121.094303, 14.956544], [121.094303, 14.956275], [121.094034, 14.956275], [121.094034, 14.956005], [121.093495, 14.956005], [121.093495, 14.955736], [121.093225, 14.955736], [121.093225, 14.955466], [121.092956, 14.955466], [121.092956, 14.955197], [121.092686, 14.955197], [121.092686, 14.954927], [121.092417, 14.954927], [121.092417, 14.952771], [121.092147, 14.952771], [121.092147, 14.952502], [121.091339, 14.952502], [121.091339, 14.952771], [121.091069, 14.952771], [121.091069, 14.953041], [121.090531, 14.953041], [121.090531, 14.952771], [121.089992, 14.952771], [121.089992, 14.952502], [121.089722, 14.952502], [121.089722, 14.952233], [121.089453, 14.952233], [121.089453, 14.951963], [121.089183, 14.951963], [121.089183, 14.951694], [121.088914, 14.951694], [121.088914, 14.951424], [121.088644, 14.951424], [121.088644, 14.949807], [121.088105, 14.949807], [121.088105, 14.949538], [121.087836, 14.949538], [121.087836, 14.948999], [121.087297, 14.948999], [121.087297, 14.948729], [121.087027, 14.948729], [121.087027, 14.948999], [121.086488, 14.948999], [121.086488, 14.949538], [121.086219, 14.949538], [121.086219, 14.949807], [121.085949, 14.949807], [121.085949, 14.950346], [121.086219, 14.950346], [121.086219, 14.951694], [121.085949, 14.951694], [121.085949, 14.951963], [121.085141, 14.951963], [121.085141, 14.952233], [121.084871, 14.952233], [121.084871, 14.953041], [121.084602, 14.953041], [121.084602, 14.95331], [121.084332, 14.95331], [121.084332, 14.95358], [121.080829, 14.95358], [121.080829, 14.953849], [121.080559, 14.953849], [121.080559, 14.954119], [121.08029, 14.954119], [121.08029, 14.954658], [121.080559, 14.954658], [121.080559, 14.956275], [121.079751, 14.956275], [121.079751, 14.956544], [121.078673, 14.956544], [121.078673, 14.956814], [121.078403, 14.956814], [121.078403, 14.957083], [121.078134, 14.957083], [121.078134, 14.957353], [121.077864, 14.957353], [121.077864, 14.957622], [121.077325, 14.957622], [121.077325, 14.958161], [121.077056, 14.958161], [121.077056, 14.9587], [121.077325, 14.9587], [121.077325, 14.95897], [121.078134, 14.95897], [121.078134, 14.959239], [121.078403, 14.959239], [121.078403, 14.959778], [121.078673, 14.959778], [121.078673, 14.960048], [121.078942, 14.960048], [121.078942, 14.960317], [121.079212, 14.960317], [121.079212, 14.960587], [121.079481, 14.960587], [121.079481, 14.960856], [121.079751, 14.960856], [121.079751, 14.961395], [121.08002, 14.961395], [121.08002, 14.962204], [121.08029, 14.962204], [121.08029, 14.962473], [121.080559, 14.962473], [121.080559, 14.962743], [121.080829, 14.962743], [121.080829, 14.963012], [121.081098, 14.963012], [121.081098, 14.962743], [121.081637, 14.962743], [121.081637, 14.962473], [121.081907, 14.962473], [121.081907, 14.962204], [121.082446, 14.962204], [121.082446, 14.961934], [121.084602, 14.961934], [121.084602, 14.962204], [121.086488, 14.962204], [121.086488, 14.961934], [121.086758, 14.961934], [121.086758, 14.961395], [121.087297, 14.961395], [121.087297, 14.961126], [121.088375, 14.961126], [121.088375, 14.960856], [121.088914, 14.960856], [121.088914, 14.960587], [121.089992, 14.960587], [121.089992, 14.960317], [121.0908, 14.960317], [121.0908, 14.960587], [121.091069, 14.960587], [121.091069, 14.961395], [121.091608, 14.961395], [121.091608, 14.961665], [121.091878, 14.961665], [121.091878, 14.961395], [121.092147, 14.961395], [121.092147, 14.961126]]]]}}]}