{"type": "FeatureCollection", "features": [{"type": "Feature", "properties": {"area_id": "antipolo-rodriguez-uplands", "name": "Antipolo-Rodriguez Uplands (Upper Marikina River Basin Protected Landscape)", "study_type": "rural_upland", "zone": null, "area_ha": 26125.1, "version": 1}, "geometry": {"type": "MultiPolygon", "coordinates": [[[[121.19042, 14.694183], [121.19042, 14.697184], [121.190443, 14.720634], [121.190768, 14.720639], [121.193921, 14.718427], [121.19879, 14.718708], [121.199085, 14.744044], [121.208899, 14.750809], [121.21718, 14.766474], [121.239707, 14.783913], [121.240724, 14.789086], [121.236822, 14.792773], [121.235912, 14.805009], [121.246966, 14.822154], [121.256924, 14.820027], [121.260477, 14.831122], [121.285774, 14.831305], [121.302562, 14.832825], [121.325072, 14.789001], [121.29479, 14.777742], [121.297555, 14.764445], [121.313487, 14.730872], [121.319373, 14.70323], [121.32344, 14.69614], [121.327177, 14.669181], [121.327422, 14.662117], [121.311507, 14.646328], [121.319373, 14.606521], [121.317706, 14.593568], [121.321175, 14.582607], [121.305095, 14.576409], [121.30238, 14.575611], [121.299062, 14.573613], [121.297452, 14.572266], [121.296583, 14.571571], [121.292975, 14.57079], [121.291936, 14.570808], [121.286198, 14.574269], [121.282956, 14.576025], [121.27942, 14.577849], [121.27488, 14.581234], [121.265922, 14.582166], [121.269587, 14.587731], [121.263514, 14.583593], [121.261191, 14.585809], [121.261463, 14.592818], [121.256732, 14.596823], [121.254132, 14.601304], [121.252384, 14.60554], [121.240956, 14.622752], [121.24265, 14.621843], [121.244469, 14.62496], [121.247979, 14.630966], [121.249147, 14.632973], [121.251091, 14.633722], [121.249477, 14.63526], [121.249789, 14.636139], [121.251185, 14.636584], [121.251501, 14.639853], [121.253744, 14.640259], [121.252946, 14.640919], [121.254217, 14.644352], [121.260767, 14.644067], [121.262988, 14.647451], [121.26429, 14.643037], [121.263255, 14.638466], [121.259826, 14.637075], [121.264968, 14.633209], [121.268053, 14.63089], [121.274376, 14.626141], [121.279076, 14.622605], [121.285101, 14.618079], [121.290661, 14.620888], [121.285239, 14.626467], [121.285145, 14.638395], [121.281894, 14.637044], [121.274961, 14.639585], [121.272316, 14.638885], [121.265953, 14.641699], [121.267857, 14.656022], [121.269057, 14.658456], [121.272883, 14.65888], [121.274256, 14.658639], [121.274983, 14.659883], [121.274301, 14.660262], [121.27468, 14.661154], [121.274234, 14.662719], [121.265485, 14.665747], [121.260914, 14.663335], [121.259871, 14.661119], [121.259126, 14.658318], [121.258506, 14.657921], [121.259421, 14.658068], [121.260446, 14.65715], [121.263126, 14.656896], [121.263599, 14.654385], [121.264219, 14.651108], [121.261744, 14.651389], [121.260749, 14.651081], [121.259296, 14.653498], [121.258119, 14.655469], [121.25728, 14.656864], [121.255095, 14.656396], [121.251042, 14.660561], [121.246177, 14.657288], [121.236421, 14.659678], [121.233005, 14.645788], [121.229184, 14.646479], [121.227034, 14.6459], [121.224889, 14.645324], [121.22295, 14.644259], [121.219677, 14.650947], [121.216676, 14.65393], [121.212703, 14.655607], [121.205403, 14.666839], [121.207713, 14.678246], [121.19677, 14.688038], [121.193337, 14.689692], [121.19042, 14.694183]]]]}}]}