{"type": "FeatureCollection", "features": [{"type": "Feature", "properties": {"area_id": "quezon-city", "name": "Quezon City", "study_type": "urban", "zone": null, "area_ha": 16248.5, "version": 1}, "geometry": {"type": "MultiPolygon", "coordinates": [[[[120.993136, 14.636168], [120.99328, 14.636618], [120.993438, 14.637073], [120.993464, 14.637234], [120.993471, 14.637276], [120.993473, 14.637296], [120.993471, 14.637318], [120.993467, 14.637335], [120.993458, 14.637362], [120.993353, 14.63758], [120.993274, 14.637605], [120.993169, 14.637642], [120.992383, 14.637889], [120.992299, 14.637915], [120.992311, 14.63795], [120.992315, 14.637963], [120.992317, 14.637974], [120.992319, 14.637987], [120.992319, 14.637999], [120.992318, 14.638011], [120.992315, 14.638023], [120.992307, 14.638041], [120.99229, 14.638074], [120.992157, 14.638331], [120.992048, 14.638522], [120.991914, 14.638765], [120.991776, 14.639022], [120.99156, 14.639403], [120.991281, 14.639892], [120.991274, 14.639905], [120.991371, 14.640175], [120.991428, 14.640326], [120.99157, 14.64063], [120.991754, 14.641064], [120.991942, 14.641505], [120.99213, 14.641931], [120.992317, 14.642375], [120.992506, 14.642807], [120.99271, 14.643225], [120.992946, 14.643771], [120.992494, 14.643738], [120.992457, 14.643737], [120.992531, 14.643918], [120.992635, 14.644163], [120.992745, 14.644399], [120.992894, 14.644418], [120.993133, 14.644956], [120.993376, 14.6455], [120.993273, 14.645543], [120.993491, 14.646609], [120.993638, 14.646589], [120.993869, 14.646557], [120.993911, 14.646867], [120.994032, 14.646864], [120.994031, 14.647223], [120.994026, 14.647647], [120.994991, 14.648375], [120.99533, 14.648656], [120.995838, 14.648932], [120.995969, 14.649231], [120.995827, 14.649291], [120.995746, 14.649784], [120.995742, 14.650092], [120.99579, 14.650311], [120.995848, 14.650582], [120.995867, 14.650629], [120.995877, 14.650664], [120.996017, 14.651066], [120.996091, 14.65129], [120.996171, 14.651511], [120.996211, 14.65163], [120.996318, 14.651959], [120.996426, 14.652264], [120.996312, 14.652307], [120.996324, 14.652344], [120.996336, 14.652374], [120.996448, 14.652385], [120.996503, 14.652397], [120.996581, 14.652443], [120.996683, 14.65251], [120.996768, 14.652561], [120.99688, 14.652633], [120.99668, 14.653044], [120.996615, 14.653202], [120.997076, 14.653659], [120.998822, 14.655787], [120.99885, 14.656208], [120.999064, 14.656427], [120.998792, 14.656679], [120.998828, 14.656714], [120.999069, 14.6569], [120.999066, 14.656999], [120.999021, 14.657089], [120.998961, 14.657174], [120.999112, 14.657317], [120.998977, 14.657318], [120.999143, 14.657322], [120.999364, 14.657491], [120.999428, 14.657548], [120.999481, 14.657615], [120.999524, 14.657716], [120.999593, 14.658217], [120.999636, 14.658397], [120.999676, 14.658489], [120.99973, 14.65856], [120.999827, 14.658659], [120.999973, 14.658798], [120.999988, 14.658977], [120.999989, 14.659012], [120.999984, 14.659457], [121.000005, 14.660446], [121.000002, 14.660473], [121.0, 14.660616], [120.999968, 14.660765], [120.999948, 14.660825], [120.999918, 14.660867], [120.999865, 14.660926], [120.999813, 14.660977], [120.999762, 14.661038], [120.999707, 14.661119], [120.999665, 14.661186], [120.999635, 14.661257], [120.999602, 14.661373], [120.999592, 14.661467], [120.999596, 14.661582], [120.999605, 14.661679], [120.999621, 14.661756], [120.999651, 14.661836], [120.999662, 14.66187], [120.999695, 14.661937], [120.999737, 14.662009], [120.999785, 14.66207], [120.999844, 14.662123], [120.999899, 14.662165], [121.000291, 14.662331], [121.000302, 14.662913], [121.000308, 14.663393], [121.000312, 14.663774], [121.000313, 14.663936], [121.00032, 14.664603], [121.00053, 14.6646], [121.000594, 14.664631], [121.000641, 14.664662], [121.000694, 14.664714], [121.000793, 14.66482], [121.001012, 14.665055], [121.001263, 14.665325], [121.001511, 14.665592], [121.001684, 14.665782], [121.001781, 14.665887], [121.002501, 14.666646], [121.002518, 14.666667], [121.002518, 14.666696], [121.002506, 14.666722], [121.002905, 14.667149], [121.002946, 14.667224], [121.005498, 14.67191], [121.005829, 14.670946], [121.005867, 14.670954], [121.006026, 14.670984], [121.006806, 14.671134], [121.006662, 14.67164], [121.006618, 14.671794], [121.006829, 14.671838], [121.006652, 14.672622], [121.006615, 14.673019], [121.006874, 14.673144], [121.007496, 14.673191], [121.007768, 14.673288], [121.00811, 14.673473], [121.008502, 14.673931], [121.008466, 14.674015], [121.008616, 14.674103], [121.00887, 14.674251], [121.009052, 14.674345], [121.009363, 14.674542], [121.009483, 14.674621], [121.00965, 14.67473], [121.009786, 14.674792], [121.009951, 14.674867], [121.010218, 14.674964], [121.010113, 14.675305], [121.010805, 14.676058], [121.01118, 14.676077], [121.011073, 14.67635], [121.011718, 14.677026], [121.011968, 14.676861], [121.012696, 14.676379], [121.012862, 14.676618], [121.012922, 14.676713], [121.013205, 14.676801], [121.013291, 14.677425], [121.013319, 14.67755], [121.013279, 14.677678], [121.012957, 14.678113], [121.012932, 14.678177], [121.012943, 14.678252], [121.013184, 14.678491], [121.013517, 14.678837], [121.013538, 14.678849], [121.013558, 14.678868], [121.013957, 14.679229], [121.013978, 14.679239], [121.013999, 14.679256], [121.014847, 14.680076], [121.015635, 14.680289], [121.015675, 14.680354], [121.015727, 14.680612], [121.016252, 14.680589], [121.015994, 14.68061], [121.015371, 14.680617], [121.01621, 14.681866], [121.01634, 14.682059], [121.016529, 14.682306], [121.017527, 14.683602], [121.018355, 14.684679], [121.018692, 14.685139], [121.018746, 14.685089], [121.019126, 14.6852], [121.019435, 14.685295], [121.019392, 14.685427], [121.019515, 14.685493], [121.0196, 14.685515], [121.019687, 14.685531], [121.019807, 14.685544], [121.020117, 14.685595], [121.020276, 14.685613], [121.020359, 14.68573], [121.020351, 14.685786], [121.020755, 14.686073], [121.021266, 14.686547], [121.021781, 14.686526], [121.02207, 14.686963], [121.022654, 14.68714], [121.022648, 14.68716], [121.022386, 14.688097], [121.022411, 14.688335], [121.022421, 14.688411], [121.022564, 14.688566], [121.022553, 14.68858], [121.022545, 14.688599], [121.022524, 14.68874], [121.022492, 14.688914], [121.022465, 14.689078], [121.022439, 14.689242], [121.022444, 14.68927], [121.022683, 14.689329], [121.02267, 14.689399], [121.022837, 14.689447], [121.022781, 14.689655], [121.022677, 14.690107], [121.022637, 14.690255], [121.022604, 14.690365], [121.022574, 14.690437], [121.022586, 14.690453], [121.022629, 14.690455], [121.022998, 14.690522], [121.023123, 14.690546], [121.023406, 14.690603], [121.02356, 14.690653], [121.02364, 14.690684], [121.023667, 14.690694], [121.023738, 14.690761], [121.023779, 14.690825], [121.023809, 14.690872], [121.023864, 14.690983], [121.023908, 14.691107], [121.023922, 14.69117], [121.023933, 14.691218], [121.023933, 14.691288], [121.023929, 14.69145], [121.023924, 14.691605], [121.023924, 14.691787], [121.023942, 14.692036], [121.023986, 14.692223], [121.024005, 14.692262], [121.024062, 14.692383], [121.024128, 14.692516], [121.024206, 14.692634], [121.024231, 14.692672], [121.024337, 14.692854], [121.024433, 14.69297], [121.024566, 14.693291], [121.024579, 14.693333], [121.024594, 14.69342], [121.024618, 14.693534], [121.02463, 14.693656], [121.024627, 14.693772], [121.024596, 14.693827], [121.024569, 14.693862], [121.02452, 14.69391], [121.024496, 14.693926], [121.024448, 14.693957], [121.024434, 14.693968], [121.024215, 14.694118], [121.024047, 14.694235], [121.024023, 14.69425], [121.023793, 14.694403], [121.023707, 14.694503], [121.023652, 14.69458], [121.023533, 14.694878], [121.023426, 14.695136], [121.023383, 14.695238], [121.02337, 14.695272], [121.023316, 14.695568], [121.023255, 14.695692], [121.023241, 14.695721], [121.023219, 14.695757], [121.022987, 14.695864], [121.022785, 14.695963], [121.022666, 14.696032], [121.022428, 14.696202], [121.022275, 14.69634], [121.022139, 14.696495], [121.022113, 14.696546], [121.022103, 14.696583], [121.022064, 14.696651], [121.021865, 14.696906], [121.021567, 14.697289], [121.02139, 14.697425], [121.020842, 14.6979], [121.02081, 14.697927], [121.020778, 14.697949], [121.020736, 14.697947], [121.020659, 14.697944], [121.020649, 14.697945], [121.020594, 14.697952], [121.020537, 14.697964], [121.02037, 14.698044], [121.020239, 14.69816], [121.020166, 14.698299], [121.020004, 14.698537], [121.019924, 14.698677], [121.01986, 14.698798], [121.019714, 14.698942], [121.019651, 14.699029], [121.019593, 14.699107], [121.019523, 14.699185], [121.019414, 14.699292], [121.019349, 14.699354], [121.019157, 14.699536], [121.019016, 14.699633], [121.018482, 14.699983], [121.018077, 14.700318], [121.018009, 14.700418], [121.017977, 14.700491], [121.017901, 14.700742], [121.017856, 14.700888], [121.017843, 14.70092], [121.017822, 14.700971], [121.017759, 14.701088], [121.017631, 14.701386], [121.017464, 14.701816], [121.017436, 14.701883], [121.017411, 14.701963], [121.017401, 14.702049], [121.017413, 14.702204], [121.017436, 14.702342], [121.017465, 14.702425], [121.017499, 14.702529], [121.017567, 14.702641], [121.017776, 14.702957], [121.018045, 14.7034], [121.018032, 14.703518], [121.018016, 14.703648], [121.018, 14.703724], [121.017946, 14.703857], [121.017894, 14.703936], [121.017781, 14.704118], [121.017727, 14.704232], [121.017702, 14.70432], [121.017706, 14.70442], [121.017723, 14.704524], [121.017829, 14.704825], [121.017929, 14.705035], [121.018006, 14.705156], [121.018175, 14.705396], [121.01847, 14.705758], [121.018558, 14.705894], [121.018632, 14.70601], [121.018697, 14.706124], [121.018763, 14.706238], [121.018811, 14.706345], [121.018857, 14.706474], [121.018895, 14.70659], [121.018915, 14.706709], [121.018918, 14.706817], [121.018918, 14.706866], [121.018913, 14.706925], [121.018896, 14.707042], [121.018869, 14.707155], [121.018804, 14.70716], [121.018664, 14.707169], [121.018625, 14.707178], [121.017825, 14.707243], [121.017156, 14.707002], [121.017135, 14.707058], [121.016894, 14.70771], [121.01684, 14.708126], [121.016407, 14.708329], [121.016389, 14.708383], [121.016552, 14.708469], [121.016711, 14.708568], [121.016828, 14.708671], [121.016853, 14.708697], [121.016914, 14.708791], [121.016978, 14.708903], [121.017016, 14.708982], [121.016975, 14.709007], [121.016475, 14.709201], [121.016222, 14.709313], [121.016172, 14.709259], [121.01585, 14.709364], [121.015823, 14.709306], [121.015469, 14.709438], [121.015291, 14.709461], [121.014852, 14.709779], [121.01481, 14.709835], [121.014803, 14.709843], [121.014755, 14.709884], [121.01453, 14.710004], [121.014142, 14.710928], [121.014142, 14.71113], [121.014351, 14.711546], [121.014561, 14.712077], [121.014654, 14.712647], [121.014774, 14.713063], [121.014813, 14.713921], [121.014518, 14.713918], [121.014471, 14.71433], [121.014241, 14.714884], [121.014124, 14.715317], [121.014015, 14.715569], [121.013955, 14.715692], [121.01376, 14.715936], [121.013588, 14.716208], [121.013585, 14.716359], [121.013647, 14.716456], [121.013984, 14.7166], [121.014159, 14.716946], [121.01438, 14.716845], [121.014501, 14.717769], [121.014543, 14.718529], [121.014431, 14.719158], [121.014609, 14.719174], [121.014823, 14.719217], [121.015126, 14.719294], [121.015158, 14.719301], [121.015199, 14.719107], [121.015229, 14.719116], [121.015397, 14.719116], [121.01541, 14.719028], [121.015438, 14.719022], [121.015555, 14.718999], [121.015796, 14.719028], [121.01587, 14.719379], [121.015883, 14.719439], [121.017206, 14.719455], [121.01755, 14.719475], [121.017698, 14.719484], [121.017698, 14.719754], [121.017698, 14.719869], [121.017972, 14.719869], [121.018011, 14.719869], [121.018012, 14.719895], [121.01802, 14.720175], [121.018053, 14.720174], [121.018168, 14.720174], [121.018168, 14.720207], [121.018307, 14.720207], [121.018307, 14.720276], [121.018348, 14.720276], [121.018348, 14.720404], [121.018345, 14.720438], [121.018348, 14.720488], [121.018415, 14.720487], [121.018425, 14.720606], [121.018483, 14.720628], [121.018708, 14.720591], [121.01886, 14.720541], [121.018918, 14.720671], [121.019012, 14.720979], [121.019125, 14.720997], [121.019127, 14.721109], [121.019129, 14.72251], [121.019614, 14.723312], [121.019913, 14.723444], [121.020215, 14.724788], [121.021479, 14.724541], [121.021998, 14.724421], [121.022212, 14.724353], [121.022313, 14.724256], [121.022237, 14.724133], [121.022247, 14.724131], [121.022999, 14.724008], [121.023252, 14.724048], [121.023353, 14.724038], [121.023439, 14.724156], [121.023505, 14.724244], [121.023608, 14.724361], [121.023709, 14.724458], [121.024068, 14.724791], [121.02411, 14.724824], [121.024187, 14.724868], [121.024338, 14.724945], [121.024603, 14.725085], [121.024743, 14.725164], [121.024965, 14.725281], [121.025474, 14.725562], [121.025548, 14.725602], [121.025584, 14.725624], [121.025598, 14.725648], [121.025599, 14.72567], [121.025596, 14.725694], [121.025485, 14.725793], [121.024887, 14.726241], [121.024474, 14.726544], [121.024347, 14.726637], [121.02413, 14.726786], [121.024052, 14.726825], [121.023896, 14.726902], [121.023764, 14.726948], [121.023808, 14.727136], [121.023812, 14.727326], [121.023819, 14.728059], [121.02384, 14.7285], [121.024377, 14.728564], [121.024899, 14.728533], [121.026225, 14.728462], [121.026442, 14.72855], [121.027667, 14.728865], [121.028136, 14.72795], [121.029029, 14.728309], [121.029021, 14.728471], [121.028984, 14.72918], [121.028787, 14.729426], [121.027933, 14.729851], [121.027361, 14.730137], [121.027322, 14.730575], [121.027517, 14.730547], [121.027532, 14.730545], [121.028043, 14.730684], [121.028061, 14.730689], [121.02815, 14.730714], [121.028158, 14.73094], [121.028326, 14.73094], [121.028321, 14.731258], [121.028311, 14.731869], [121.027901, 14.73219], [121.027775, 14.732289], [121.027786, 14.732653], [121.028002, 14.732691], [121.028032, 14.732956], [121.028082, 14.733364], [121.028549, 14.733315], [121.028572, 14.733174], [121.029616, 14.733343], [121.031222, 14.733027], [121.031245, 14.733022], [121.031352, 14.733001], [121.031159, 14.732207], [121.031908, 14.731987], [121.032158, 14.733172], [121.032234, 14.733246], [121.032318, 14.733376], [121.032794, 14.734112], [121.032903, 14.734655], [121.032929, 14.734785], [121.033139, 14.734888], [121.033562, 14.735305], [121.033591, 14.735335], [121.033624, 14.735366], [121.033979, 14.7359], [121.034541, 14.736004], [121.03514, 14.736077], [121.035408, 14.736114], [121.035941, 14.736098], [121.035984, 14.736162], [121.0364, 14.736151], [121.036431, 14.735962], [121.036683, 14.735988], [121.037353, 14.736004], [121.037898, 14.736018], [121.037867, 14.737145], [121.037866, 14.737173], [121.03789, 14.737188], [121.037903, 14.73721], [121.037901, 14.737362], [121.037893, 14.73744], [121.03788, 14.737542], [121.037865, 14.737582], [121.03791, 14.737582], [121.039419, 14.737598], [121.039424, 14.738008], [121.039419, 14.739902], [121.039223, 14.739643], [121.039101, 14.739757], [121.039081, 14.739779], [121.03906, 14.739798], [121.038778, 14.740064], [121.038679, 14.740321], [121.038591, 14.740548], [121.038719, 14.740602], [121.038747, 14.740614], [121.038767, 14.740554], [121.03933, 14.74088], [121.039508, 14.74106], [121.039536, 14.741063], [121.039666, 14.741239], [121.039654, 14.74125], [121.039644, 14.741262], [121.039632, 14.741279], [121.039646, 14.741303], [121.039661, 14.741331], [121.040109, 14.741629], [121.04083, 14.742106], [121.041298, 14.742112], [121.041517, 14.742112], [121.041543, 14.742112], [121.041573, 14.742114], [121.043566, 14.742119], [121.043889, 14.742119], [121.043919, 14.742119], [121.043955, 14.742122], [121.044072, 14.742124], [121.044072, 14.74217], [121.04537, 14.74217], [121.046402, 14.742166], [121.046454, 14.742164], [121.046512, 14.742164], [121.046474, 14.742391], [121.047597, 14.742162], [121.048052, 14.742087], [121.04874, 14.742087], [121.04996, 14.742089], [121.050252, 14.741633], [121.050906, 14.741549], [121.051698, 14.742007], [121.051816, 14.741863], [121.051804, 14.741332], [121.051801, 14.741284], [121.051795, 14.740976], [121.051784, 14.740568], [121.05212, 14.740571], [121.05212, 14.740448], [121.052326, 14.740438], [121.052339, 14.740305], [121.052577, 14.740302], [121.052614, 14.740304], [121.052614, 14.740045], [121.052819, 14.740061], [121.05314, 14.740092], [121.053309, 14.740118], [121.053309, 14.740149], [121.053324, 14.740601], [121.053327, 14.742122], [121.053752, 14.742122], [121.054403, 14.742131], [121.054401, 14.742242], [121.054539, 14.742245], [121.054586, 14.742163], [121.054596, 14.742152], [121.05461, 14.742139], [121.05463, 14.742127], [121.054646, 14.74212], [121.054662, 14.742116], [121.054683, 14.742114], [121.05487, 14.742173], [121.054962, 14.742181], [121.055067, 14.742217], [121.055711, 14.742206], [121.056521, 14.742198], [121.056942, 14.74219], [121.056979, 14.742235], [121.057004, 14.742259], [121.057033, 14.742287], [121.057046, 14.742296], [121.057078, 14.742319], [121.057092, 14.742319], [121.057122, 14.742319], [121.058589, 14.742332], [121.058613, 14.742332], [121.05866, 14.742246], [121.058712, 14.742188], [121.058788, 14.742106], [121.058826, 14.742075], [121.059011, 14.742259], [121.059075, 14.742314], [121.059128, 14.742347], [121.059199, 14.742381], [121.059287, 14.742411], [121.059349, 14.742428], [121.059396, 14.742443], [121.059439, 14.742451], [121.059487, 14.742461], [121.059522, 14.742463], [121.059605, 14.742468], [121.059692, 14.742466], [121.059804, 14.742461], [121.059856, 14.742454], [121.059906, 14.742444], [121.059957, 14.742429], [121.060014, 14.742407], [121.060065, 14.742382], [121.060105, 14.742358], [121.060138, 14.742334], [121.06016, 14.742309], [121.0602, 14.74226], [121.060239, 14.74221], [121.060278, 14.74215], [121.060401, 14.742148], [121.060657, 14.742363], [121.060796, 14.742165], [121.061132, 14.742311], [121.06117, 14.742217], [121.061189, 14.742155], [121.061204, 14.742085], [121.061215, 14.742006], [121.061235, 14.742009], [121.061987, 14.742139], [121.062246, 14.742174], [121.062299, 14.742183], [121.062349, 14.742197], [121.062432, 14.742222], [121.062673, 14.742222], [121.062705, 14.742194], [121.063565, 14.742178], [121.064445, 14.742192], [121.065022, 14.742195], [121.065091, 14.742195], [121.065664, 14.742177], [121.065659, 14.742228], [121.065686, 14.74223], [121.06643, 14.742286], [121.066433, 14.742182], [121.066695, 14.742188], [121.066702, 14.742212], [121.067252, 14.742203], [121.067255, 14.742115], [121.067258, 14.740594], [121.067233, 14.739202], [121.067539, 14.739178], [121.068119, 14.73917], [121.068727, 14.739147], [121.068733, 14.740354], [121.069325, 14.74037], [121.071918, 14.74036], [121.072761, 14.741033], [121.073008, 14.741245], [121.073054, 14.741289], [121.073135, 14.741228], [121.073126, 14.741158], [121.073122, 14.741113], [121.073121, 14.741076], [121.073124, 14.741033], [121.07314, 14.740997], [121.073229, 14.740993], [121.073565, 14.740905], [121.073832, 14.740733], [121.074162, 14.740558], [121.074582, 14.740433], [121.075039, 14.740194], [121.075493, 14.740862], [121.075809, 14.741314], [121.075902, 14.741438], [121.07596, 14.7415], [121.076011, 14.741548], [121.076096, 14.741624], [121.076188, 14.741686], [121.076304, 14.741747], [121.076383, 14.741779], [121.076442, 14.741795], [121.07693, 14.741941], [121.077146, 14.741995], [121.077277, 14.742028], [121.077405, 14.742069], [121.077516, 14.742111], [121.077597, 14.74216], [121.077654, 14.742209], [121.077691, 14.742257], [121.077738, 14.742332], [121.077772, 14.742401], [121.077779, 14.742419], [121.077805, 14.742486], [121.077832, 14.742608], [121.077852, 14.742793], [121.077928, 14.744485], [121.077939, 14.744758], [121.077962, 14.744864], [121.077988, 14.744943], [121.078025, 14.745028], [121.078047, 14.745071], [121.078068, 14.745113], [121.07812, 14.745202], [121.078172, 14.745283], [121.078242, 14.745363], [121.078315, 14.745432], [121.078377, 14.745474], [121.078445, 14.745525], [121.078544, 14.745576], [121.078863, 14.745701], [121.078905, 14.745718], [121.079584, 14.745931], [121.079632, 14.745945], [121.080085, 14.746077], [121.080286, 14.746151], [121.080451, 14.746228], [121.080474, 14.746238], [121.080502, 14.746256], [121.080607, 14.746323], [121.080669, 14.746362], [121.080785, 14.746476], [121.081209, 14.746901], [121.081446, 14.747143], [121.081725, 14.747438], [121.081939, 14.747646], [121.082235, 14.747934], [121.082717, 14.748581], [121.083118, 14.749177], [121.083373, 14.74957], [121.083587, 14.749865], [121.083937, 14.750349], [121.08404, 14.750507], [121.084429, 14.751104], [121.084574, 14.751329], [121.084647, 14.751442], [121.084662, 14.751487], [121.084684, 14.751552], [121.084748, 14.751738], [121.084782, 14.751849], [121.084827, 14.752391], [121.084845, 14.752603], [121.084863, 14.752863], [121.084924, 14.753631], [121.084935, 14.753929], [121.084943, 14.754141], [121.084996, 14.754788], [121.085015, 14.755025], [121.085051, 14.75536], [121.085103, 14.755667], [121.085348, 14.756572], [121.085755, 14.758098], [121.08584, 14.758376], [121.085847, 14.758398], [121.085934, 14.758683], [121.086565, 14.758501], [121.086589, 14.758488], [121.086628, 14.758481], [121.086736, 14.75848], [121.087657, 14.758328], [121.087838, 14.758333], [121.088951, 14.758365], [121.089729, 14.758835], [121.091021, 14.758446], [121.091852, 14.758851], [121.093045, 14.759429], [121.093593, 14.759911], [121.095483, 14.761408], [121.095843, 14.761344], [121.096011, 14.761323], [121.096601, 14.761569], [121.097323, 14.761922], [121.097621, 14.762777], [121.09802, 14.76221], [121.098534, 14.76238], [121.099198, 14.762336], [121.09953, 14.762415], [121.099726, 14.762564], [121.099799, 14.762714], [121.099729, 14.765222], [121.101978, 14.765485], [121.104915, 14.762656], [121.108564, 14.76355], [121.109682, 14.763838], [121.110299, 14.765486], [121.111266, 14.766496], [121.113245, 14.768538], [121.113916, 14.769981], [121.114293, 14.770858], [121.114653, 14.772163], [121.115473, 14.772433], [121.117316, 14.77296], [121.118426, 14.773383], [121.119031, 14.774081], [121.119597, 14.774687], [121.11989, 14.775129], [121.120194, 14.775385], [121.120439, 14.775564], [121.121199, 14.77603], [121.12286, 14.775742], [121.123693, 14.775542], [121.12457, 14.774521], [121.125136, 14.775459], [121.125637, 14.775693], [121.127093, 14.776441], [121.128835, 14.777563], [121.129947, 14.777485], [121.129964, 14.777325], [121.130077, 14.777258], [121.130432, 14.776926], [121.130534, 14.776851], [121.130612, 14.776795], [121.130699, 14.776731], [121.130788, 14.776658], [121.131061, 14.776483], [121.131261, 14.776408], [121.131408, 14.776349], [121.131534, 14.776336], [121.131628, 14.776326], [121.131722, 14.776331], [121.13194, 14.776356], [121.132055, 14.776374], [121.132117, 14.77639], [121.132188, 14.776423], [121.132242, 14.776462], [121.132606, 14.776847], [121.132953, 14.777148], [121.133043, 14.777219], [121.133121, 14.777284], [121.133232, 14.777367], [121.133286, 14.777426], [121.13343, 14.777553], [121.133514, 14.777616], [121.133589, 14.777656], [121.133677, 14.777681], [121.133749, 14.777696], [121.133823, 14.777701], [121.133884, 14.777696], [121.133983, 14.777685], [121.134096, 14.777632], [121.134144, 14.777589], [121.134191, 14.777526], [121.134235, 14.777442], [121.134247, 14.777369], [121.134256, 14.777301], [121.134264, 14.777213], [121.134298, 14.777102], [121.134357, 14.777007], [121.134443, 14.776934], [121.13452, 14.776872], [121.134577, 14.776821], [121.13463, 14.776812], [121.13475, 14.776779], [121.134972, 14.77673], [121.134471, 14.776115], [121.133864, 14.775388], [121.133812, 14.775303], [121.133784, 14.775177], [121.133746, 14.775061], [121.133661, 14.774889], [121.133544, 14.774666], [121.133469, 14.774539], [121.133358, 14.77437], [121.133288, 14.774261], [121.133243, 14.774119], [121.133221, 14.773973], [121.133331, 14.77349], [121.133318, 14.773309], [121.133309, 14.77322], [121.13324, 14.77312], [121.133145, 14.773061], [121.132831, 14.773012], [121.131599, 14.7728], [121.131358, 14.77276], [121.131115, 14.772761], [121.130661, 14.772763], [121.130391, 14.772769], [121.13021, 14.772749], [121.130104, 14.772699], [121.129981, 14.772628], [121.129841, 14.772512], [121.129531, 14.772123], [121.129049, 14.771435], [121.128829, 14.771027], [121.128773, 14.770875], [121.128734, 14.770751], [121.128727, 14.770609], [121.128764, 14.770298], [121.128581, 14.770355], [121.128423, 14.770381], [121.128307, 14.770387], [121.128216, 14.770371], [121.127829, 14.770085], [121.127737, 14.770002], [121.127653, 14.769891], [121.127637, 14.769791], [121.127782, 14.769237], [121.127766, 14.769141], [121.127737, 14.769022], [121.127666, 14.768907], [121.127563, 14.768778], [121.127268, 14.768388], [121.126691, 14.767449], [121.126609, 14.767358], [121.126473, 14.767237], [121.12478, 14.766289], [121.124699, 14.766219], [121.124652, 14.76615], [121.124654, 14.766077], [121.124883, 14.765445], [121.124914, 14.76539], [121.124956, 14.765335], [121.12539, 14.765074], [121.12545, 14.765023], [121.125519, 14.764971], [121.125552, 14.764896], [121.125547, 14.764768], [121.125507, 14.76354], [121.125513, 14.763459], [121.125534, 14.763387], [121.125565, 14.763311], [121.126027, 14.762897], [121.126078, 14.762838], [121.126114, 14.762754], [121.126102, 14.762688], [121.126036, 14.762584], [121.125327, 14.761357], [121.125297, 14.761277], [121.125282, 14.761187], [121.125388, 14.760962], [121.125402, 14.760866], [121.125376, 14.760805], [121.124549, 14.760158], [121.124244, 14.75981], [121.124184, 14.759764], [121.124114, 14.759743], [121.123577, 14.759803], [121.123469, 14.759771], [121.123412, 14.759713], [121.123366, 14.759635], [121.123342, 14.75942], [121.123214, 14.758019], [121.123186, 14.757926], [121.123144, 14.757848], [121.123053, 14.757793], [121.122942, 14.757765], [121.122784, 14.75775], [121.122574, 14.757739], [121.121777, 14.757727], [121.121636, 14.757725], [121.121547, 14.757692], [121.121488, 14.757646], [121.121442, 14.75759], [121.121239, 14.757043], [121.121222, 14.75691], [121.121219, 14.756822], [121.121308, 14.756651], [121.121443, 14.756422], [121.121516, 14.756186], [121.121476, 14.756009], [121.121412, 14.755838], [121.121332, 14.755723], [121.120997, 14.75534], [121.120949, 14.755267], [121.120931, 14.75519], [121.120933, 14.75508], [121.121287, 14.7539], [121.121281, 14.753713], [121.121244, 14.75355], [121.121185, 14.753416], [121.121127, 14.753303], [121.120949, 14.753094], [121.1209, 14.753024], [121.120886, 14.75295], [121.120874, 14.752831], [121.12085, 14.752263], [121.120826, 14.752152], [121.120772, 14.752022], [121.120492, 14.751639], [121.119797, 14.751036], [121.119665, 14.750899], [121.119259, 14.750432], [121.118312, 14.749668], [121.11825, 14.749586], [121.118215, 14.74951], [121.118222, 14.749419], [121.118738, 14.747705], [121.11874, 14.747603], [121.118715, 14.747507], [121.118659, 14.747389], [121.117833, 14.746376], [121.117777, 14.746261], [121.117764, 14.746158], [121.117772, 14.746046], [121.117818, 14.745936], [121.117977, 14.745614], [121.118139, 14.745241], [121.118257, 14.744897], [121.118356, 14.744243], [121.118378, 14.744025], [121.118382, 14.743823], [121.118374, 14.743678], [121.118367, 14.743532], [121.117637, 14.740768], [121.117639, 14.740684], [121.117664, 14.740594], [121.11811, 14.739393], [121.118139, 14.739336], [121.118186, 14.739273], [121.11827, 14.739272], [121.118327, 14.739291], [121.118416, 14.739321], [121.119069, 14.73971], [121.119191, 14.739766], [121.119318, 14.739779], [121.119461, 14.739756], [121.119599, 14.739695], [121.122347, 14.738127], [121.122405, 14.738055], [121.122444, 14.737935], [121.122424, 14.737828], [121.122382, 14.737702], [121.121832, 14.736397], [121.121784, 14.736276], [121.121761, 14.736131], [121.121772, 14.736009], [121.121796, 14.735754], [121.121893, 14.73508], [121.12182, 14.734939], [121.121606, 14.734879], [121.121427, 14.734875], [121.121299, 14.734875], [121.120972, 14.734729], [121.120413, 14.734353], [121.119647, 14.733808], [121.119294, 14.733364], [121.119204, 14.733278], [121.118703, 14.732936], [121.118613, 14.732801], [121.118423, 14.732289], [121.118384, 14.732094], [121.118388, 14.731068], [121.118369, 14.730737], [121.118023, 14.729929], [121.118058, 14.729549], [121.118128, 14.729605], [121.118199, 14.729642], [121.11827, 14.729673], [121.118347, 14.729703], [121.118414, 14.729715], [121.118519, 14.729727], [121.118613, 14.729731], [121.118698, 14.729723], [121.118777, 14.729703], [121.11883, 14.729683], [121.118873, 14.729658], [121.118916, 14.729628], [121.118954, 14.729592], [121.118989, 14.72955], [121.119034, 14.729486], [121.119083, 14.729408], [121.119139, 14.729316], [121.119187, 14.729227], [121.11924, 14.729137], [121.119278, 14.72906], [121.119312, 14.728988], [121.119341, 14.728907], [121.119365, 14.728833], [121.119388, 14.728752], [121.119404, 14.728683], [121.119431, 14.728521], [121.119453, 14.7284], [121.119473, 14.728282], [121.11949, 14.728198], [121.119508, 14.728129], [121.119532, 14.728048], [121.119606, 14.727828], [121.119651, 14.72771], [121.119682, 14.727631], [121.11974, 14.727503], [121.119817, 14.727373], [121.119886, 14.727256], [121.119945, 14.727162], [121.119994, 14.727085], [121.120031, 14.727028], [121.120077, 14.726937], [121.12012, 14.726843], [121.120189, 14.726707], [121.12032, 14.726522], [121.120484, 14.726542], [121.120918, 14.726641], [121.121107, 14.726663], [121.121216, 14.726662], [121.121373, 14.726599], [121.121457, 14.726493], [121.1215, 14.726339], [121.121455, 14.72618], [121.12135, 14.726071], [121.121151, 14.725935], [121.121041, 14.725796], [121.121064, 14.725659], [121.121423, 14.72515], [121.121547, 14.725103], [121.121699, 14.725227], [121.121839, 14.725535], [121.121939, 14.72567], [121.122351, 14.72641], [121.122504, 14.726775], [121.122628, 14.726947], [121.122762, 14.727031], [121.123116, 14.727275], [121.123504, 14.727669], [121.123595, 14.727815], [121.123797, 14.728357], [121.124027, 14.727804], [121.12434, 14.727401], [121.124608, 14.727245], [121.124854, 14.727099], [121.125156, 14.726898], [121.125481, 14.726786], [121.12576, 14.726764], [121.126141, 14.726652], [121.126666, 14.726618], [121.1268, 14.72674], [121.127031, 14.72682], [121.127277, 14.726899], [121.127486, 14.726978], [121.127767, 14.727108], [121.127933, 14.727252], [121.128164, 14.727375], [121.128517, 14.727642], [121.128993, 14.727909], [121.129267, 14.728125], [121.129426, 14.728334], [121.129483, 14.728558], [121.129462, 14.728882], [121.129455, 14.72912], [121.129494, 14.729313], [121.129584, 14.729027], [121.129664, 14.728853], [121.129772, 14.728673], [121.129902, 14.728392], [121.129873, 14.728046], [121.129858, 14.727829], [121.130039, 14.727469], [121.130306, 14.727043], [121.130544, 14.726906], [121.130854, 14.726473], [121.131048, 14.72599], [121.131243, 14.725514], [121.13138, 14.724988], [121.13146, 14.724685], [121.131503, 14.724533], [121.131533, 14.724144], [121.131469, 14.723613], [121.131184, 14.723202], [121.130988, 14.722918], [121.130229, 14.722639], [121.12946, 14.722564], [121.128829, 14.722416], [121.128497, 14.72215], [121.127952, 14.72188], [121.127403, 14.721975], [121.126668, 14.721929], [121.12617, 14.72162], [121.125815, 14.721399], [121.125722, 14.721263], [121.125344, 14.720708], [121.125064, 14.719831], [121.125277, 14.719085], [121.125504, 14.718554], [121.125595, 14.717889], [121.125626, 14.717824], [121.125346, 14.717867], [121.125053, 14.717665], [121.124829, 14.717287], [121.124676, 14.716834], [121.124733, 14.7164], [121.12497, 14.716218], [121.125035, 14.715853], [121.125159, 14.715555], [121.12504, 14.715056], [121.124941, 14.714156], [121.124904, 14.713808], [121.124916, 14.7129], [121.124804, 14.711867], [121.124829, 14.711158], [121.124842, 14.710126], [121.124668, 14.709404], [121.124618, 14.708745], [121.124394, 14.708222], [121.124182, 14.707749], [121.123759, 14.707339], [121.123249, 14.707239], [121.122814, 14.707289], [121.122578, 14.707488], [121.122403, 14.707812], [121.122528, 14.708123], [121.122727, 14.708434], [121.122801, 14.708745], [121.122814, 14.708993], [121.122814, 14.709292], [121.122627, 14.709491], [121.122267, 14.709628], [121.121931, 14.709678], [121.121607, 14.709491], [121.121552, 14.710534], [121.119772, 14.71182], [121.117913, 14.712186], [121.115992, 14.709235], [121.116459, 14.706681], [121.116406, 14.705627], [121.116964, 14.704816], [121.117699, 14.704094], [121.118139, 14.703425], [121.118815, 14.703031], [121.119368, 14.702674], [121.119629, 14.702188], [121.11994, 14.70194], [121.120251, 14.70179], [121.120438, 14.70143], [121.120376, 14.70072], [121.120214, 14.700036], [121.120214, 14.699414], [121.120177, 14.698991], [121.120102, 14.698593], [121.119903, 14.698382], [121.119642, 14.698108], [121.119144, 14.697735], [121.11887, 14.697486], [121.118547, 14.697461], [121.118124, 14.697461], [121.117415, 14.697561], [121.116594, 14.697809], [121.116382, 14.697856], [121.116166, 14.697908], [121.116056, 14.697927], [121.115856, 14.69794], [121.115679, 14.697924], [121.115498, 14.697879], [121.115343, 14.697856], [121.115185, 14.697834], [121.114889, 14.697811], [121.114786, 14.697847], [121.114676, 14.697843], [121.114395, 14.697727], [121.113947, 14.697486], [121.113437, 14.697157], [121.11235, 14.69663], [121.112276, 14.696586], [121.11223, 14.69654], [121.112195, 14.696475], [121.112168, 14.696393], [121.112111, 14.696317], [121.112052, 14.696275], [121.111803, 14.696137], [121.111677, 14.696047], [121.111612, 14.695953], [121.111538, 14.695823], [121.111469, 14.695668], [121.111441, 14.695435], [121.111437, 14.69504], [121.111442, 14.694822], [121.111445, 14.694744], [121.111458, 14.694646], [121.111466, 14.694545], [121.111466, 14.69445], [121.111445, 14.694382], [121.111415, 14.694281], [121.11139, 14.694151], [121.111363, 14.694018], [121.11135, 14.693586], [121.111336, 14.692747], [121.111331, 14.692668], [121.111303, 14.692184], [121.111238, 14.691599], [121.111149, 14.690959], [121.111137, 14.690639], [121.111154, 14.690319], [121.111188, 14.689695], [121.111181, 14.689438], [121.111183, 14.689331], [121.111191, 14.689191], [121.111199, 14.689087], [121.111212, 14.688998], [121.111253, 14.688861], [121.111324, 14.688668], [121.11142, 14.688421], [121.111515, 14.688109], [121.111539, 14.688043], [121.111547, 14.68798], [121.111558, 14.687906], [121.11157, 14.687828], [121.111652, 14.687485], [121.111718, 14.687204], [121.111749, 14.68706], [121.111777, 14.686861], [121.111835, 14.686412], [121.111847, 14.686323], [121.111878, 14.686143], [121.111968, 14.685788], [121.112018, 14.6857], [121.112072, 14.685601], [121.112111, 14.685492], [121.112145, 14.685362], [121.112169, 14.685239], [121.112174, 14.68507], [121.112179, 14.684956], [121.112177, 14.684888], [121.112177, 14.684813], [121.112169, 14.684748], [121.112135, 14.684618], [121.112052, 14.684392], [121.11202, 14.684301], [121.111953, 14.6841], [121.111916, 14.683994], [121.111862, 14.683872], [121.111786, 14.683757], [121.111706, 14.683643], [121.111573, 14.683478], [121.111435, 14.683272], [121.111327, 14.683106], [121.111192, 14.682829], [121.110676, 14.681534], [121.110593, 14.681287], [121.110543, 14.681152], [121.110413, 14.680884], [121.110289, 14.680572], [121.109692, 14.679455], [121.109544, 14.679244], [121.109387, 14.678964], [121.109299, 14.67878], [121.109198, 14.678522], [121.109151, 14.678395], [121.109031, 14.678153], [121.108821, 14.67775], [121.108613, 14.677402], [121.108373, 14.677084], [121.107871, 14.676588], [121.107515, 14.676211], [121.107401, 14.676096], [121.107229, 14.675956], [121.10705, 14.675776], [121.106927, 14.675644], [121.106766, 14.675521], [121.106702, 14.675499], [121.106327, 14.675371], [121.106129, 14.675319], [121.105913, 14.675254], [121.105744, 14.675189], [121.105547, 14.675087], [121.105359, 14.674975], [121.105237, 14.674897], [121.105068, 14.674783], [121.105013, 14.674736], [121.104678, 14.674294], [121.104486, 14.67399], [121.104249, 14.673685], [121.104158, 14.673581], [121.103989, 14.673389], [121.103669, 14.672994], [121.103289, 14.672492], [121.103261, 14.672411], [121.103146, 14.672266], [121.102964, 14.672063], [121.102666, 14.671673], [121.10246, 14.671449], [121.102339, 14.671335], [121.102293, 14.67129], [121.102044, 14.671127], [121.101812, 14.670994], [121.10156, 14.670874], [121.101334, 14.670755], [121.101035, 14.67063], [121.100829, 14.670557], [121.100624, 14.670445], [121.100502, 14.67037], [121.100382, 14.670294], [121.100273, 14.670227], [121.100104, 14.670097], [121.099768, 14.669754], [121.099627, 14.669651], [121.099353, 14.669189], [121.099121, 14.668786], [121.099067, 14.668693], [121.098717, 14.667999], [121.098616, 14.667637], [121.098643, 14.66732], [121.09869, 14.667103], [121.098828, 14.666816], [121.098848, 14.666532], [121.098828, 14.666111], [121.09872, 14.665857], [121.098504, 14.665436], [121.09847, 14.665198], [121.098464, 14.664942], [121.098401, 14.664807], [121.097988, 14.663905], [121.097726, 14.663974], [121.096137, 14.666351], [121.095274, 14.667779], [121.095215, 14.667785], [121.091805, 14.66428], [121.090648, 14.663244], [121.090337, 14.662971], [121.08976, 14.662516], [121.089374, 14.660736], [121.089187, 14.659933], [121.089187, 14.659788], [121.089073, 14.658183], [121.089019, 14.657334], [121.089018, 14.657322], [121.088619, 14.656869], [121.088589, 14.656812], [121.088531, 14.656676], [121.088506, 14.65661], [121.088491, 14.656548], [121.088484, 14.6565], [121.088774, 14.656222], [121.088926, 14.656046], [121.088945, 14.656024], [121.088318, 14.654116], [121.088035, 14.654357], [121.087513, 14.652565], [121.087498, 14.652524], [121.087485, 14.65249], [121.087336, 14.652244], [121.087126, 14.652389], [121.085873, 14.653256], [121.085831, 14.653282], [121.085789, 14.653305], [121.085366, 14.653526], [121.085359, 14.653382], [121.085369, 14.653237], [121.085398, 14.653111], [121.085424, 14.653021], [121.085453, 14.652905], [121.085479, 14.652827], [121.085501, 14.652698], [121.085479, 14.652575], [121.085424, 14.652453], [121.08535, 14.652327], [121.085263, 14.652201], [121.085172, 14.652107], [121.085131, 14.652088], [121.085108, 14.652077], [121.085397, 14.651935], [121.085404, 14.651902], [121.085437, 14.651736], [121.085421, 14.651657], [121.0854, 14.651603], [121.085346, 14.651545], [121.085296, 14.651512], [121.085229, 14.651478], [121.085016, 14.651474], [121.084975, 14.651474], [121.085447, 14.650941], [121.085525, 14.650841], [121.085573, 14.650772], [121.085597, 14.650733], [121.085612, 14.650694], [121.085683, 14.650325], [121.085778, 14.649865], [121.085856, 14.649494], [121.085866, 14.649443], [121.085884, 14.649399], [121.085901, 14.649374], [121.085925, 14.649341], [121.086043, 14.649272], [121.086259, 14.64916], [121.086548, 14.649035], [121.086723, 14.648983], [121.08676, 14.648974], [121.086801, 14.64894], [121.086816, 14.648907], [121.086829, 14.648854], [121.086846, 14.648813], [121.086868, 14.648782], [121.086917, 14.648735], [121.087047, 14.648608], [121.087118, 14.648566], [121.087202, 14.648545], [121.087355, 14.648504], [121.087424, 14.648472], [121.087455, 14.648446], [121.087474, 14.648407], [121.087489, 14.648327], [121.0875, 14.648279], [121.087506, 14.648228], [121.087509, 14.648092], [121.087513, 14.647982], [121.087532, 14.647898], [121.087581, 14.647761], [121.087556, 14.647751], [121.087324, 14.647647], [121.087284, 14.64763], [121.087251, 14.647608], [121.08723, 14.647572], [121.087105, 14.647193], [121.087144, 14.647016], [121.087308, 14.64647], [121.087299, 14.646449], [121.08757, 14.645769], [121.087709, 14.644823], [121.087115, 14.644703], [121.086923, 14.644664], [121.086403, 14.644559], [121.085778, 14.644433], [121.085721, 14.644415], [121.085686, 14.644398], [121.085658, 14.644372], [121.085417, 14.643681], [121.085065, 14.643599], [121.084893, 14.643572], [121.084825, 14.643566], [121.084751, 14.643567], [121.084661, 14.643583], [121.084634, 14.64359], [121.084512, 14.643622], [121.084178, 14.643732], [121.084138, 14.643741], [121.084073, 14.643753], [121.0837, 14.643833], [121.083675, 14.643738], [121.08362, 14.643557], [121.083582, 14.643568], [121.08331, 14.64366], [121.083152, 14.64324], [121.08301, 14.643063], [121.082788, 14.642827], [121.082571, 14.642606], [121.082226, 14.642169], [121.082213, 14.642105], [121.082318, 14.641747], [121.082384, 14.641583], [121.082508, 14.641328], [121.082329, 14.641031], [121.082321, 14.640911], [121.082312, 14.640838], [121.082278, 14.640697], [121.082057, 14.640088], [121.08201, 14.640011], [121.081848, 14.639918], [121.081753, 14.639749], [121.081531, 14.639469], [121.081529, 14.639123], [121.080997, 14.638737], [121.080018, 14.637886], [121.079892, 14.637883], [121.079768, 14.637864], [121.079286, 14.637034], [121.079047, 14.636472], [121.078808, 14.636296], [121.077261, 14.63516], [121.077266, 14.634906], [121.077271, 14.634561], [121.077272, 14.634521], [121.077626, 14.634513], [121.077607, 14.634135], [121.077237, 14.633811], [121.077294, 14.633737], [121.077281, 14.633007], [121.077102, 14.633002], [121.077331, 14.632657], [121.077321, 14.632585], [121.077266, 14.632442], [121.077212, 14.632302], [121.0772, 14.632274], [121.077175, 14.632211], [121.077238, 14.632114], [121.077546, 14.63164], [121.077557, 14.631606], [121.077552, 14.631555], [121.077495, 14.631285], [121.077447, 14.631053], [121.077404, 14.630914], [121.077154, 14.630272], [121.077013, 14.629992], [121.076981, 14.629859], [121.076905, 14.629546], [121.076802, 14.629493], [121.07627, 14.629216], [121.075844, 14.628993], [121.075808, 14.628981], [121.07573, 14.628956], [121.075446, 14.628873], [121.074888, 14.628681], [121.074518, 14.628581], [121.074406, 14.628551], [121.074397, 14.62848], [121.07438, 14.628329], [121.074448, 14.627985], [121.07455, 14.627464], [121.074616, 14.627183], [121.07467, 14.626942], [121.074805, 14.626349], [121.074969, 14.625559], [121.075046, 14.625175], [121.074962, 14.625157], [121.074939, 14.625152], [121.074924, 14.625149], [121.074891, 14.625143], [121.074899, 14.625104], [121.074855, 14.624951], [121.074833, 14.624783], [121.074851, 14.624477], [121.075035, 14.624228], [121.075323, 14.623867], [121.075295, 14.623804], [121.075271, 14.623751], [121.075294, 14.623767], [121.075312, 14.623782], [121.075367, 14.623739], [121.075964, 14.622762], [121.076484, 14.621819], [121.07649, 14.621663], [121.076494, 14.621266], [121.076449, 14.620911], [121.076532, 14.620871], [121.076479, 14.620783], [121.07643, 14.620801], [121.076127, 14.620245], [121.075536, 14.619686], [121.075694, 14.619601], [121.076385, 14.619165], [121.076665, 14.619006], [121.077517, 14.618605], [121.077585, 14.618585], [121.077641, 14.618569], [121.077662, 14.618603], [121.078018, 14.618495], [121.078189, 14.618413], [121.07903, 14.61797], [121.078705, 14.617333], [121.078637, 14.617148], [121.078551, 14.616963], [121.078346, 14.616038], [121.078364, 14.615507], [121.078364, 14.615292], [121.078377, 14.615227], [121.078406, 14.615109], [121.078531, 14.614599], [121.078682, 14.614245], [121.07887, 14.613766], [121.079362, 14.612975], [121.079613, 14.612653], [121.080263, 14.612116], [121.081282, 14.611339], [121.0817, 14.61102], [121.082301, 14.610584], [121.082594, 14.610375], [121.083029, 14.610069], [121.083579, 14.609693], [121.084688, 14.608822], [121.085605, 14.608249], [121.085835, 14.608057], [121.087214, 14.606908], [121.087778, 14.606449], [121.088135, 14.606069], [121.088325, 14.605451], [121.088444, 14.605141], [121.088682, 14.604547], [121.089084, 14.60381], [121.089418, 14.603121], [121.089775, 14.602669], [121.09006, 14.602218], [121.090346, 14.601695], [121.090488, 14.601148], [121.090512, 14.600363], [121.090417, 14.599983], [121.090227, 14.599484], [121.089989, 14.599246], [121.089585, 14.599056], [121.089062, 14.599008], [121.088563, 14.599032], [121.088135, 14.599198], [121.087754, 14.599484], [121.087445, 14.599864], [121.087398, 14.600292], [121.087279, 14.600863], [121.087113, 14.60129], [121.086685, 14.601885], [121.086162, 14.602503], [121.085567, 14.602978], [121.084973, 14.603264], [121.084308, 14.603406], [121.083785, 14.603454], [121.083262, 14.603382], [121.08281, 14.603097], [121.082596, 14.602764], [121.082539, 14.602592], [121.082406, 14.602194], [121.082334, 14.601528], [121.082382, 14.601005], [121.082406, 14.60034], [121.082558, 14.599222], [121.082353, 14.596745], [121.082272, 14.595045], [121.082353, 14.593288], [121.082461, 14.592589], [121.082749, 14.591453], [121.083045, 14.590232], [121.082312, 14.590083], [121.081074, 14.589833], [121.079884, 14.589723], [121.079869, 14.590083], [121.079845, 14.590702], [121.079797, 14.591924], [121.079621, 14.591947], [121.0793, 14.59211], [121.079123, 14.592357], [121.079062, 14.592484], [121.078824, 14.592409], [121.078685, 14.592417], [121.078193, 14.592604], [121.077732, 14.592777], [121.077609, 14.592806], [121.077532, 14.592829], [121.076272, 14.593002], [121.075633, 14.593099], [121.075315, 14.593164], [121.074939, 14.593207], [121.074559, 14.593261], [121.074099, 14.593329], [121.073739, 14.593388], [121.073549, 14.593456], [121.073424, 14.593544], [121.073319, 14.593656], [121.073257, 14.593772], [121.073016, 14.593624], [121.072788, 14.593525], [121.07273, 14.593489], [121.072635, 14.59348], [121.072494, 14.593474], [121.072371, 14.593474], [121.072274, 14.593465], [121.072284, 14.593141], [121.071189, 14.593246], [121.070982, 14.593312], [121.070883, 14.593436], [121.07042, 14.593386], [121.070272, 14.593371], [121.070093, 14.59334], [121.069996, 14.593319], [121.069848, 14.593268], [121.069786, 14.593205], [121.069702, 14.593144], [121.06965, 14.593064], [121.069627, 14.592989], [121.069561, 14.59297], [121.069495, 14.592947], [121.06943, 14.592905], [121.0689, 14.592497], [121.068219, 14.591994], [121.068102, 14.591943], [121.068014, 14.591922], [121.066891, 14.591636], [121.066483, 14.591544], [121.062551, 14.590663], [121.06234, 14.590617], [121.062055, 14.590544], [121.061784, 14.590462], [121.061704, 14.590566], [121.061639, 14.590629], [121.061448, 14.590762], [121.061391, 14.590695], [121.060949, 14.59028], [121.060747, 14.590314], [121.060498, 14.590344], [121.060333, 14.590314], [121.060013, 14.590276], [121.05966, 14.590071], [121.057287, 14.589617], [121.057789, 14.591166], [121.058115, 14.592154], [121.058403, 14.593109], [121.058736, 14.594066], [121.059004, 14.594862], [121.059371, 14.595791], [121.059571, 14.596613], [121.059704, 14.597531], [121.059754, 14.597914], [121.059748, 14.598395], [121.059738, 14.599082], [121.059681, 14.599646], [121.059649, 14.599858], [121.059587, 14.600266], [121.05937, 14.601178], [121.059245, 14.601644], [121.059068, 14.602131], [121.058707, 14.602984], [121.058398, 14.603633], [121.05808, 14.604298], [121.057918, 14.604655], [121.057559, 14.605476], [121.057189, 14.60627], [121.057021, 14.60657], [121.056982, 14.606654], [121.053051, 14.605003], [121.052614, 14.604826], [121.052067, 14.604566], [121.051973, 14.604742], [121.051745, 14.605251], [121.05161, 14.605587], [121.051503, 14.605839], [121.05147, 14.605934], [121.051434, 14.606023], [121.05135, 14.606227], [121.051196, 14.606649], [121.051112, 14.606877], [121.051045, 14.607057], [121.050925, 14.607361], [121.050792, 14.607705], [121.050687, 14.607975], [121.050033, 14.609656], [121.04938, 14.6095], [121.048556, 14.609303], [121.048305, 14.60924], [121.047746, 14.609105], [121.047545, 14.609055], [121.046929, 14.608902], [121.046178, 14.608726], [121.045897, 14.608661], [121.045667, 14.608639], [121.045155, 14.608711], [121.044566, 14.608797], [121.044078, 14.608883], [121.042991, 14.609624], [121.042981, 14.609619], [121.042896, 14.609579], [121.042138, 14.609269], [121.042046, 14.609232], [121.041517, 14.609022], [121.041109, 14.608861], [121.040399, 14.608423], [121.03917, 14.607566], [121.038471, 14.606962], [121.038171, 14.606707], [121.037731, 14.606288], [121.037702, 14.606355], [121.037304, 14.606665], [121.037275, 14.606699], [121.037256, 14.606731], [121.037243, 14.606784], [121.037233, 14.606868], [121.037197, 14.607058], [121.037163, 14.607244], [121.037117, 14.607475], [121.037106, 14.607521], [121.037087, 14.607557], [121.03707, 14.607589], [121.037034, 14.607627], [121.037005, 14.607658], [121.036952, 14.607732], [121.036924, 14.607793], [121.036912, 14.607842], [121.036897, 14.608201], [121.036901, 14.608277], [121.036903, 14.608336], [121.036899, 14.608372], [121.036895, 14.608404], [121.036886, 14.608429], [121.036871, 14.608448], [121.036857, 14.608459], [121.036358, 14.608645], [121.036297, 14.608664], [121.036248, 14.608676], [121.036198, 14.608679], [121.036139, 14.608674], [121.036096, 14.608668], [121.036062, 14.608662], [121.036016, 14.608651], [121.035978, 14.608641], [121.035801, 14.608607], [121.035743, 14.6086], [121.035684, 14.60859], [121.035642, 14.608594], [121.035594, 14.6086], [121.035572, 14.608607], [121.035534, 14.608623], [121.035488, 14.608649], [121.035452, 14.608668], [121.035408, 14.6087], [121.035363, 14.608729], [121.035315, 14.60878], [121.03527, 14.60882], [121.035235, 14.608864], [121.035178, 14.608949], [121.034992, 14.609221], [121.03492, 14.609333], [121.034888, 14.609371], [121.034858, 14.609394], [121.03482, 14.609414], [121.034778, 14.609433], [121.034734, 14.609449], [121.03469, 14.609462], [121.034647, 14.609469], [121.034626, 14.609471], [121.034604, 14.609469], [121.034576, 14.609463], [121.034538, 14.609456], [121.034505, 14.609446], [121.034481, 14.609441], [121.034459, 14.609434], [121.034407, 14.609428], [121.034358, 14.609432], [121.034316, 14.609438], [121.034269, 14.609442], [121.034222, 14.609447], [121.034176, 14.60945], [121.034107, 14.609457], [121.034053, 14.609463], [121.033993, 14.609472], [121.033944, 14.609479], [121.033898, 14.609494], [121.033863, 14.60951], [121.033826, 14.609531], [121.033787, 14.609553], [121.033741, 14.609585], [121.033702, 14.609614], [121.03366, 14.609646], [121.03363, 14.609674], [121.033586, 14.609717], [121.033502, 14.609819], [121.033402, 14.609972], [121.033246, 14.610185], [121.033108, 14.610362], [121.033039, 14.610459], [121.033007, 14.610509], [121.032972, 14.610554], [121.032846, 14.610679], [121.03283, 14.610693], [121.032682, 14.610826], [121.032666, 14.61084], [121.032597, 14.610913], [121.032556, 14.610949], [121.032525, 14.610975], [121.032482, 14.611017], [121.032445, 14.611046], [121.03238, 14.611117], [121.032293, 14.611238], [121.032271, 14.611264], [121.032252, 14.611282], [121.032236, 14.611293], [121.032217, 14.611308], [121.032176, 14.611337], [121.032086, 14.611386], [121.032016, 14.611431], [121.031904, 14.611483], [121.031819, 14.611521], [121.03173, 14.611561], [121.031704, 14.611584], [121.031687, 14.611608], [121.031652, 14.611647], [121.031637, 14.61167], [121.031616, 14.611693], [121.031592, 14.611712], [121.031566, 14.61173], [121.031549, 14.61174], [121.031525, 14.611758], [121.03147, 14.611794], [121.031416, 14.611835], [121.031342, 14.611909], [121.031237, 14.612052], [121.031201, 14.612112], [121.031166, 14.612183], [121.031129, 14.612319], [121.031097, 14.61243], [121.031065, 14.612557], [121.031042, 14.612631], [121.031018, 14.612695], [121.031, 14.612747], [121.03099, 14.612794], [121.030973, 14.612829], [121.030953, 14.612858], [121.030926, 14.612878], [121.030887, 14.612898], [121.030842, 14.612913], [121.030802, 14.61292], [121.030746, 14.612925], [121.030694, 14.612933], [121.030622, 14.61294], [121.03057, 14.612947], [121.030528, 14.612952], [121.030464, 14.612962], [121.030434, 14.612962], [121.030382, 14.612967], [121.030313, 14.61298], [121.030261, 14.61299], [121.030179, 14.613027], [121.030092, 14.613069], [121.030023, 14.613086], [121.029932, 14.613113], [121.029823, 14.613123], [121.029702, 14.613108], [121.029603, 14.613088], [121.029528, 14.613064], [121.029444, 14.613032], [121.029395, 14.613004], [121.029264, 14.612924], [121.02923, 14.612866], [121.029207, 14.612807], [121.029191, 14.612756], [121.029187, 14.612729], [121.029185, 14.612695], [121.02919, 14.612659], [121.029195, 14.612629], [121.0292, 14.6126], [121.029201, 14.612575], [121.029203, 14.61254], [121.029203, 14.612507], [121.0292, 14.612468], [121.029195, 14.61244], [121.02919, 14.612408], [121.029169, 14.612363], [121.029136, 14.612312], [121.02907, 14.612239], [121.029001, 14.612163], [121.028964, 14.612122], [121.028929, 14.612096], [121.028897, 14.612077], [121.028853, 14.612062], [121.028818, 14.612052], [121.028794, 14.612044], [121.028775, 14.61204], [121.028759, 14.612037], [121.02874, 14.612034], [121.028723, 14.612031], [121.028704, 14.612029], [121.028684, 14.612028], [121.028662, 14.612029], [121.028645, 14.612031], [121.028624, 14.612036], [121.028608, 14.61204], [121.028593, 14.612044], [121.028578, 14.612049], [121.028562, 14.612055], [121.02853, 14.612067], [121.028429, 14.612108], [121.028382, 14.612122], [121.028327, 14.612141], [121.028261, 14.612164], [121.028204, 14.612185], [121.027905, 14.612294], [121.027884, 14.612301], [121.027853, 14.612309], [121.027822, 14.612317], [121.027784, 14.612323], [121.027748, 14.612329], [121.027682, 14.612335], [121.02762, 14.612336], [121.027521, 14.612333], [121.02736, 14.612322], [121.02727, 14.61231], [121.027108, 14.612294], [121.027087, 14.612292], [121.027038, 14.612288], [121.027013, 14.612284], [121.02698, 14.612277], [121.026933, 14.612274], [121.026894, 14.612272], [121.026841, 14.612275], [121.026726, 14.61228], [121.026543, 14.612277], [121.026359, 14.612271], [121.026263, 14.612274], [121.026187, 14.612275], [121.026105, 14.612281], [121.026021, 14.612287], [121.025976, 14.612291], [121.025903, 14.6123], [121.025836, 14.612312], [121.025769, 14.612322], [121.025697, 14.612335], [121.025614, 14.61235], [121.025543, 14.612364], [121.02548, 14.612376], [121.025433, 14.612386], [121.025384, 14.612402], [121.025339, 14.612424], [121.025295, 14.612453], [121.025274, 14.612476], [121.025244, 14.612513], [121.025218, 14.612548], [121.0252, 14.61258], [121.025186, 14.612612], [121.025169, 14.612645], [121.025158, 14.612682], [121.025145, 14.61273], [121.025129, 14.612791], [121.025102, 14.612912], [121.025079, 14.613032], [121.025047, 14.613186], [121.025041, 14.613227], [121.025032, 14.613272], [121.025025, 14.613296], [121.025014, 14.61332], [121.025, 14.613348], [121.024977, 14.613374], [121.024952, 14.613399], [121.024925, 14.613418], [121.024745, 14.613502], [121.024582, 14.61358], [121.02443, 14.613647], [121.024266, 14.613715], [121.024191, 14.61374], [121.024084, 14.613774], [121.024031, 14.613785], [121.023977, 14.613797], [121.023929, 14.613809], [121.023852, 14.613819], [121.023802, 14.613825], [121.023763, 14.613832], [121.023716, 14.613835], [121.023677, 14.613832], [121.023624, 14.613825], [121.023579, 14.613811], [121.023547, 14.613797], [121.023511, 14.613779], [121.023476, 14.613759], [121.023444, 14.613733], [121.02341, 14.613701], [121.023377, 14.613664], [121.023355, 14.613631], [121.023327, 14.613581], [121.023302, 14.613535], [121.023282, 14.613484], [121.023272, 14.613437], [121.023263, 14.613384], [121.023253, 14.613333], [121.023244, 14.613263], [121.023215, 14.612858], [121.023165, 14.612333], [121.023156, 14.612263], [121.023139, 14.612184], [121.02313, 14.612129], [121.023104, 14.612046], [121.023069, 14.611972], [121.022371, 14.610988], [121.022209, 14.610791], [121.022137, 14.610717], [121.022072, 14.610636], [121.021984, 14.610505], [121.021912, 14.610393], [121.021798, 14.610214], [121.021678, 14.610039], [121.021593, 14.609917], [121.021556, 14.609845], [121.021527, 14.609783], [121.021506, 14.60973], [121.021495, 14.609687], [121.021484, 14.609637], [121.021464, 14.609523], [121.021455, 14.60944], [121.021446, 14.609355], [121.021444, 14.609191], [121.02181, 14.60886], [121.021925, 14.608757], [121.021997, 14.608697], [121.02218, 14.608485], [121.022252, 14.608395], [121.022302, 14.608304], [121.022373, 14.608146], [121.022399, 14.608044], [121.022419, 14.607947], [121.022427, 14.607833], [121.022419, 14.607731], [121.022384, 14.60755], [121.022334, 14.607469], [121.022279, 14.60738], [121.022063, 14.60714], [121.021893, 14.606953], [121.021612, 14.606678], [121.021437, 14.606486], [121.021329, 14.606357], [121.021147, 14.6061], [121.021092, 14.606018], [121.020542, 14.605152], [121.02042, 14.60496], [121.020162, 14.604542], [121.020094, 14.604418], [121.020007, 14.604295], [121.019935, 14.604128], [121.01986, 14.603937], [121.019792, 14.603742], [121.019724, 14.603559], [121.019649, 14.603328], [121.019623, 14.60319], [121.019623, 14.603058], [121.019396, 14.603135], [121.019311, 14.603137], [121.019152, 14.60318], [121.018979, 14.603304], [121.018841, 14.60343], [121.018318, 14.60373], [121.018182, 14.603856], [121.017509, 14.604432], [121.017493, 14.604426], [121.017381, 14.604493], [121.016394, 14.605247], [121.016356, 14.605276], [121.0163, 14.605317], [121.015191, 14.606166], [121.015157, 14.606193], [121.015099, 14.606237], [121.014039, 14.607048], [121.01401, 14.607074], [121.013997, 14.607086], [121.013986, 14.607153], [121.013957, 14.607172], [121.012074, 14.608556], [121.012054, 14.608574], [121.012033, 14.608586], [121.011615, 14.608895], [121.011604, 14.608903], [121.011562, 14.608935], [121.011527, 14.608957], [121.01143, 14.609026], [121.010432, 14.609787], [121.009296, 14.610674], [121.009285, 14.610682], [121.008144, 14.61155], [121.006962, 14.612472], [121.006933, 14.61249], [121.006909, 14.61251], [121.006634, 14.612738], [121.006621, 14.612749], [121.006605, 14.61276], [121.006376, 14.612949], [121.006358, 14.612964], [121.006343, 14.612977], [121.00609, 14.613186], [121.006077, 14.613196], [121.006056, 14.613212], [121.006025, 14.613238], [121.005737, 14.613476], [121.005722, 14.613487], [121.005587, 14.613598], [121.005573, 14.61361], [121.005557, 14.613624], [121.005302, 14.613833], [121.005272, 14.613859], [121.005261, 14.613862], [121.005233, 14.613869], [121.005137, 14.613898], [121.004447, 14.614451], [121.003898, 14.614892], [121.003864, 14.614917], [121.003833, 14.614944], [121.00195, 14.616408], [121.001786, 14.616535], [121.00175, 14.616567], [121.001709, 14.6166], [121.001474, 14.616767], [121.001335, 14.616864], [121.001137, 14.617015], [121.000992, 14.617097], [121.000904, 14.617164], [120.999733, 14.618025], [120.999699, 14.618048], [120.998557, 14.618923], [120.998527, 14.618942], [120.998503, 14.618959], [120.997687, 14.619574], [120.997344, 14.619832], [120.996159, 14.620767], [120.994986, 14.621662], [120.993822, 14.622563], [120.993808, 14.622573], [120.992624, 14.623468], [120.991848, 14.624057], [120.991486, 14.62433], [120.990532, 14.625126], [120.990501, 14.625152], [120.990303, 14.625279], [120.99013, 14.625413], [120.990034, 14.625499], [120.989958, 14.625563], [120.989886, 14.62564], [120.989852, 14.625694], [120.989828, 14.625755], [120.989817, 14.625834], [120.989823, 14.62591], [120.989838, 14.626015], [120.990227, 14.627418], [120.990348, 14.627776], [120.990471, 14.628146], [120.990594, 14.628524], [120.990715, 14.628885], [120.990837, 14.629256], [120.990842, 14.629275], [120.990958, 14.629624], [120.991102, 14.63007], [120.991256, 14.630502], [120.991414, 14.630953], [120.991568, 14.631409], [120.991713, 14.631856], [120.991864, 14.632313], [120.992005, 14.632755], [120.992163, 14.633212], [120.992315, 14.633661], [120.992469, 14.634113], [120.99262, 14.634574], [120.992769, 14.635028], [120.993059, 14.635933], [120.991914, 14.636338], [120.991965, 14.636498], [120.991973, 14.636527], [120.993136, 14.636168]]]]}}]}